{"type": "FeatureCollection", "features": [{"type": "Feature", "properties": {"vessel_name": "Aurora Australis", "voyage_id": "AAD-2015-16", "country": "Australia", "source": "Australian Antarctic Division (AAD)", "observation_count": 2090, "total_distance_km": 8161.8, "start_date": "", "end_date": ""}, "geometry": {"type": "LineString", "coordinates": [[147.339645, -42.882586], [147.339605, -42.882645], [147.339703, -42.882499], [147.339628, -42.882636], [147.339634, -42.882626], [147.339614, -42.882561], [147.339628, -42.882559], [147.339587, -42.882545], [147.339633, -42.882571], [147.375728, -43.00778], [147.468661, -43.284458], [147.359402, -43.544257], [147.143761, -43.694065], [146.946474, -43.818381], [146.734516, -43.955472], [146.513188, -44.092642], [146.279794, -44.242755], [146.06255, -44.387069], [145.847674, -44.535112], [145.635478, -44.679361], [145.411201, -44.815142], [145.157672, -44.951175], [144.904209, -45.117238], [144.639561, -45.280218], [144.375977, -45.437479], [144.107393, -45.593579], [143.855008, -45.766999], [143.593703, -45.936225], [143.331996, -46.107329], [143.060758, -46.273969], [142.79096, -46.436233], [142.534064, -46.597321], [142.285102, -46.757987], [142.046649, -46.913699], [141.830597, -47.067533], [141.648554, -47.202537], [141.471064, -47.334066], [141.307045, -47.463228], [141.116082, -47.586686], [140.926449, -47.708882], [140.7341, -47.824529], [140.500457, -47.954966], [140.278218, -48.10464], [140.053517, -48.260531], [139.817171, -48.414348], [139.576933, -48.575518], [139.333781, -48.741672], [139.07249, -48.910915], [138.79383, -49.080317], [138.525031, -49.262886], [138.267456, -49.445373], [138.00932, -49.619877], [137.725685, -49.784499], [137.531695, -49.894343], [137.317392, -50.014607], [137.123117, -50.137667], [136.9002, -50.294931], [136.67344, -50.457418], [136.409787, -50.637228], [136.146515, -50.80928], [135.885096, -50.983406], [135.603036, -51.158673], [135.313974, -51.333418], [135.01612, -51.512818], [134.709551, -51.69431], [134.404496, -51.877651], [134.117965, -52.052158], [133.824526, -52.236917], [133.519319, -52.431398], [133.261841, -52.581992], [132.962636, -52.764625], [132.681971, -52.946982], [132.399609, -53.132816], [132.108145, -53.326372], [131.788458, -53.50845], [131.459458, -53.679085], [131.144947, -53.856765], [130.827091, -54.044784], [130.512474, -54.2394], [130.191656, -54.430222], [129.880306, -54.611211], [129.569926, -54.794293], [129.255053, -54.978318], [128.961893, -55.134101], [128.691856, -55.275256], [128.430159, -55.432823], [128.076905, -55.630229], [127.696103, -55.82619], [127.32514, -56.024364], [126.960389, -56.221199], [126.586824, -56.418013], [126.218449, -56.630296], [125.876313, -56.851174], [125.504127, -57.049841], [125.142932, -57.249637], [124.770152, -57.447378], [124.392929, -57.638647], [124.077362, -57.82833], [123.732672, -58.012358], [123.377172, -58.191849], [123.02143, -58.368109], [122.644826, -58.543394], [122.377097, -58.702469], [122.097457, -58.857819], [121.70529, -59.055063], [121.323629, -59.253795], [120.9379, -59.458667], [120.552992, -59.66614], [120.167933, -59.87166], [119.822659, -60.01054], [119.433669, -60.209593], [119.026351, -60.40871], [118.616554, -60.613345], [118.174963, -60.812172], [117.751093, -61.011622], [117.335461, -61.214344], [116.935624, -61.429192], [116.492668, -61.630649], [116.046476, -61.83646], [115.631679, -62.046982], [115.172021, -62.247072], [114.809983, -62.415352], [114.455135, -62.562338], [114.147775, -62.706374], [113.811906, -62.854638], [113.501354, -62.989784], [113.179164, -63.126336], [112.857102, -63.302962], [112.454983, -63.49107], [112.071419, -63.672778], [111.784476, -63.796626], [111.749013, -63.80344], [111.730473, -63.802822], [111.73776, -63.809256], [111.465707, -63.854234], [111.118572, -63.917674], [110.850691, -63.966238], [110.600224, -64.012756], [110.348016, -64.115523], [110.097309, -64.242356], [109.850938, -64.380964], [109.629287, -64.542066], [109.407643, -64.694967], [109.315793, -64.810892], [109.254043, -64.94764], [109.136674, -65.122597], [109.057467, -65.25852], [109.000606, -65.395811], [109.038609, -65.436225], [109.091648, -65.518394], [109.088961, -65.629025], [109.121113, -65.795508], [109.496276, -65.937566], [109.85697, -66.072849], [110.086093, -66.191426], [110.078587, -66.194347], [110.117719, -66.200319], [110.111102, -66.192378], [110.325368, -66.229687], [110.524992, -66.265295], [110.538095, -66.265843], [110.537258, -66.265837], [110.537194, -66.265782], [110.539153, -66.26622], [110.53951, -66.267213], [110.539669, -66.266999], [110.539621, -66.26759], [110.538973, -66.268138], [110.535747, -66.268725], [110.534786, -66.268452], [110.535103, -66.268534], [110.534521, -66.268411], [110.534775, -66.268404], [110.534578, -66.268249], [110.533971, -66.268023], [110.534339, -66.268188], [110.533879, -66.26757], [110.53502, -66.268404], [110.534671, -66.268217], [110.535147, -66.268438], [110.533967, -66.267495], [110.535729, -66.268438], [110.535497, -66.268371], [110.537153, -66.268428], [110.536127, -66.268612], [110.535552, -66.268407], [110.536916, -66.268624], [110.536602, -66.268432], [110.537589, -66.268382], [110.535496, -66.268418], [110.537021, -66.268533], [110.538113, -66.268439], [110.537189, -66.268449], [110.537684, -66.268354], [110.537043, -66.26861], [110.538913, -66.267459], [110.538679, -66.268268], [110.539225, -66.267796], [110.537888, -66.268297], [110.537246, -66.268569], [110.536028, -66.268537], [110.53734, -66.268544], [110.536673, -66.268673], [110.536921, -66.268803], [110.536132, -66.268723], [110.536006, -66.268979], [110.283093, -66.226543], [110.052301, -66.176034], [110.095896, -66.173844], [110.140983, -66.206396], [110.073391, -66.219781], [109.975114, -66.262599], [110.11327, -66.220873], [110.143729, -66.216761], [110.066821, -66.240366], [110.189472, -66.200597], [110.031367, -66.241916], [110.143024, -66.208225], [110.14355, -66.217422], [109.993658, -66.262597], [110.193024, -66.192184], [110.013071, -66.252958], [110.100549, -66.223452], [110.115747, -66.212367], [109.916065, -66.254608], [110.126963, -66.212134], [110.035328, -66.23624], [110.022385, -66.246252], [110.048162, -66.236003], [110.109363, -66.214846], [110.284385, -66.151624], [110.159466, -66.194392], [110.10861, -66.21983], [110.265472, -66.150321], [110.083206, -66.18751], [109.867148, -66.257357], [110.120772, -66.209557], [109.95297, -66.25718], [110.168871, -66.190784], [110.134607, -66.207589], [110.116257, -66.221303], [110.269463, -66.162521], [110.134408, -66.207245], [109.970349, -66.265305], [110.084218, -66.230511], [110.075295, -66.237514], [110.03113, -66.21686], [110.216482, -66.248953], [110.210874, -66.208098], [110.537311, -66.266065], [110.537112, -66.266118], [110.539057, -66.266263], [110.539326, -66.266494], [110.540018, -66.266569], [110.539344, -66.266219], [110.53723, -66.265903], [110.53513, -66.266748], [110.540106, -66.266508], [110.537047, -66.26789], [110.535646, -66.267861], [110.536862, -66.268033], [110.535054, -66.267239], [110.539464, -66.267257], [110.537873, -66.266433], [110.53617, -66.266198], [110.536598, -66.266194], [110.534573, -66.266972], [110.535707, -66.268031], [110.539419, -66.2675], [110.539086, -66.26781], [110.538648, -66.267933], [110.538214, -66.266377], [110.537532, -66.265924], [110.536809, -66.265836], [110.537553, -66.265724], [110.539183, -66.265849], [110.537754, -66.265874], [110.540096, -66.266661], [110.536382, -66.268528], [110.535716, -66.268605], [110.535066, -66.268299], [110.534908, -66.267982], [110.534649, -66.267749], [110.534862, -66.266906], [110.535437, -66.266634], [110.535169, -66.266728], [110.534255, -66.267078], [110.534151, -66.267109], [110.534725, -66.268112], [110.535282, -66.268354], [110.534856, -66.267826], [110.53508, -66.267935], [110.535828, -66.266995], [110.537465, -66.266413], [110.536123, -66.267962], [110.535758, -66.26771], [110.535781, -66.267979], [110.53611, -66.268097], [110.536028, -66.267097], [110.535773, -66.267511], [110.536381, -66.268166], [110.537169, -66.26832], [110.534701, -66.267607], [110.53396, -66.268024], [110.533713, -66.267558], [110.535485, -66.266615], [110.534077, -66.267445], [110.534365, -66.267957], [110.534651, -66.26795], [110.535569, -66.26849], [110.535029, -66.268009], [110.535747, -66.268402], [110.539367, -66.268248], [110.539568, -66.268131], [110.539242, -66.268252], [110.539618, -66.267595], [110.535976, -66.268493], [110.535397, -66.268323], [110.534865, -66.268287], [110.536092, -66.268559], [110.533764, -66.266399], [110.535639, -66.265943], [110.536458, -66.266013], [110.536326, -66.266321], [110.536753, -66.266156], [110.535378, -66.266317], [110.536214, -66.266025], [110.536911, -66.266019], [110.534869, -66.266116], [110.535312, -66.266118], [110.338328, -66.228219], [110.046367, -66.243062], [109.988521, -66.174584], [110.09974, -66.157936], [110.083696, -66.162654], [109.902086, -66.256194], [110.031952, -66.195942], [109.913204, -66.251309], [110.11339, -66.215573], [110.193222, -66.207732], [109.937249, -66.25006], [110.074593, -66.223828], [109.876151, -66.225644], [110.123148, -66.211171], [109.926912, -66.230692], [110.010733, -66.222621], [110.105398, -66.219348], [109.899737, -66.237521], [110.163942, -66.247016], [110.121271, -66.24878], [109.979228, -66.267677], [110.079436, -66.247972], [110.042813, -66.230481], [110.057091, -66.212336], [110.066013, -66.237187], [110.160738, -66.258021], [110.318842, -66.22868], [110.49308, -66.261205], [110.536738, -66.265925], [110.539792, -66.266157], [110.538716, -66.267549], [110.540166, -66.266199], [110.540056, -66.266075], [110.53915, -66.265802], [110.540627, -66.266534], [110.539892, -66.26613], [110.540416, -66.266212], [110.540151, -66.266473], [110.540714, -66.266807], [110.540725, -66.266473], [110.540505, -66.266224], [110.539906, -66.266008], [110.540564, -66.266487], [110.536924, -66.267459], [110.537302, -66.267556], [110.537725, -66.267638], [110.536704, -66.267429], [110.53646, -66.267372], [110.539333, -66.265907], [110.53971, -66.26588], [110.540505, -66.266099], [110.536588, -66.265797], [110.53678, -66.267656], [110.536207, -66.267852], [110.537297, -66.268028], [110.536474, -66.267977], [110.537376, -66.268067], [110.536076, -66.267803], [110.536615, -66.26796], [110.536499, -66.267855], [110.537776, -66.268042], [110.535498, -66.266767], [110.539088, -66.266313], [110.540138, -66.267377], [110.540197, -66.266899], [110.538401, -66.266158], [110.537943, -66.26606], [110.295164, -66.222556], [109.825729, -66.029972], [109.498637, -65.821086], [109.52816, -65.719982], [109.682168, -65.573066], [109.599619, -65.488008], [109.529936, -65.424341], [109.731922, -65.335774], [109.950683, -65.286641], [110.178936, -65.145901], [110.440609, -64.990885], [110.695709, -64.817983], [111.051116, -64.677215], [111.390702, -64.524477], [111.697695, -64.364007], [112.033166, -64.16518], [112.556165, -63.997927], [113.023815, -63.794264], [113.513619, -63.57637], [113.966323, -63.36552], [114.406641, -63.139161], [114.866055, -62.928774], [115.320942, -62.717254], [115.78186, -62.507104], [116.23923, -62.304114], [116.690012, -62.102204], [117.150485, -61.889746], [117.573399, -61.659516], [117.982275, -61.429403], [118.384277, -61.200101], [118.803094, -60.985763], [119.238106, -60.779208], [119.658121, -60.565116], [120.072156, -60.352496], [120.464951, -60.152154], [120.841316, -59.963311], [121.187604, -59.787431], [121.525057, -59.611981], [121.864266, -59.416981], [122.190281, -59.292193], [122.431019, -59.187102], [122.351989, -58.987772], [122.392696, -58.748741], [122.355681, -58.508729], [122.313668, -58.26773], [122.28575, -58.031733], [122.589615, -57.811911], [123.000865, -57.611365], [123.410332, -57.404918], [123.825204, -57.200578], [124.238032, -56.992662], [124.63866, -56.781995], [125.009611, -56.584583], [125.39706, -56.381444], [125.787036, -56.194929], [126.181622, -55.999519], [126.575708, -55.796055], [126.968964, -55.598114], [127.3623, -55.394576], [127.758002, -55.189751], [128.134695, -54.983675], [128.510946, -54.78128], [128.886377, -54.573913], [129.272034, -54.374151], [129.63258, -54.178962], [129.963605, -53.993833], [130.310809, -53.805126], [130.701171, -53.590711], [131.089562, -53.379973], [131.479361, -53.170579], [131.834115, -52.987245], [132.178776, -52.789119], [132.504418, -52.592135], [132.839916, -52.40827], [133.164999, -52.218221], [133.483769, -52.03335], [133.829959, -51.826781], [134.182309, -51.626896], [134.55028, -51.434647], [134.899191, -51.233428], [135.238192, -51.023267], [135.588707, -50.820036], [135.940562, -50.616741], [136.304412, -50.407295], [136.650674, -50.199799], [136.995144, -49.993281], [137.340399, -49.791961], [137.683252, -49.589954], [138.032041, -49.384169], [138.377762, -49.172936], [138.726055, -48.955773], [139.077609, -48.737224], [139.429587, -48.526912], [139.779783, -48.319865], [140.115625, -48.114975], [140.443006, -47.905822], [140.762941, -47.691505], [141.101041, -47.485215], [141.439404, -47.290435], [141.769078, -47.088304], [142.083117, -46.877409], [142.396691, -46.677677], [142.720289, -46.480348], [143.056181, -46.281812], [143.382557, -46.077058], [143.70623, -45.874494], [144.044854, -45.670968], [144.373399, -45.468664], [144.692192, -45.267698], [144.984929, -45.067299], [145.267547, -44.890506], [145.547306, -44.716857], [145.813018, -44.541844], [146.084517, -44.358878], [146.367022, -44.187378], [146.618217, -44.028951], [146.858496, -43.868802], [147.105069, -43.720499], [147.338609, -43.580595], [147.441691, -43.362974], [147.440142, -43.141863], [147.378247, -42.948682], [147.339323, -42.883553], [147.339474, -42.882649], [147.339495, -42.882675], [147.339467, -42.882722], [147.339491, -42.882682]]}}, {"type": "Feature", "properties": {"vessel_name": "Aurora Australis", "voyage_id": "AAD-2008-09", "country": "Australia", "source": "Australian Antarctic Division (AAD)", "observation_count": 2100, "total_distance_km": 12048.7, "start_date": "", "end_date": ""}, "geometry": {"type": "LineString", "coordinates": [[147.3764, -42.9394], [147.4557, -43.1799], [147.4163, -43.4196], [147.2371, -43.6097], [146.9024, -43.6958], [146.5649, -43.7808], [146.2248, -43.877], [145.8802, -43.9742], [145.537, -44.0574], [145.2017, -44.141], [144.8686, -44.2284], [144.5311, -44.3137], [144.1897, -44.3996], [143.8539, -44.4861], [143.5136, -44.5726], [143.1755, -44.6606], [142.8341, -44.7491], [142.4925, -44.8447], [142.1424, -44.9388], [141.7854, -45.0311], [141.4255, -45.115], [141.0685, -45.2015], [140.7081, -45.2933], [140.3548, -45.3846], [140.008, -45.4807], [139.6618, -45.5776], [139.3147, -45.6784], [138.9701, -45.7815], [138.6266, -45.8884], [138.2612, -45.9847], [137.8876, -46.0768], [137.5176, -46.1719], [137.1495, -46.2686], [136.7796, -46.3602], [136.4088, -46.4554], [136.0375, -46.5546], [135.6657, -46.662], [135.318, -46.7983], [134.9789, -46.9357], [134.6554, -47.0624], [134.3119, -47.1996], [133.9707, -47.3392], [133.6218, -47.4743], [133.2847, -47.6176], [133.0133, -47.8108], [132.7486, -48.0078], [132.4206, -48.2518], [132.0805, -48.5116], [131.7507, -48.7744], [131.4133, -49.0387], [131.0598, -49.3003], [130.7163, -49.5609], [130.3784, -49.8205], [130.0433, -50.0835], [129.701, -50.3518], [129.3684, -50.6245], [129.0379, -50.8997], [128.6982, -51.1596], [128.3533, -51.4132], [127.9966, -51.6662], [127.6441, -51.9218], [127.2943, -52.1875], [126.9871, -52.4319], [126.6202, -52.7061], [126.2229, -52.9628], [125.8122, -53.206], [125.401, -53.452], [125.0038, -53.7117], [124.6219, -53.9713], [124.2524, -54.2232], [123.8919, -54.4662], [123.5276, -54.7116], [123.1664, -54.9603], [122.8168, -55.2138], [122.5172, -55.437], [122.3114, -55.5981], [122.081, -55.7573], [121.8505, -55.9224], [121.6155, -56.0812], [121.2692, -56.3097], [120.8757, -56.5705], [120.4748, -56.8326], [120.0685, -57.0914], [119.6624, -57.3447], [119.2604, -57.5996], [118.8559, -57.8603], [118.616, -58.0804], [118.1912, -58.3334], [117.7479, -58.5874], [117.2927, -58.8424], [116.8823, -59.1121], [116.761, -59.4566], [116.6305, -59.8033], [116.5181, -60.0949], [116.4662, -60.2838], [116.4174, -60.4804], [116.338, -60.7374], [116.2304, -61.0506], [115.9909, -61.2534], [115.787, -61.3992], [115.5181, -61.6629], [115.2933, -61.9255], [115.2387, -62.0762], [115.191, -62.2473], [115.1057, -62.4503], [114.9813, -62.7251], [114.8041, -62.9208], [114.5046, -63.1643], [114.1465, -63.4154], [113.8551, -63.6825], [113.6289, -63.8885], [113.3231, -64.1414], [113.0795, -64.3486], [112.8977, -64.4537], [112.6319, -64.5821], [112.3299, -64.6917], [112.1095, -64.7598], [111.7209, -64.8407], [111.6595, -64.9454], [111.2722, -65.1142], [110.9722, -65.1691], [110.359, -65.2904], [109.9553, -65.3478], [109.966, -65.3332], [109.9646, -65.3167], [109.8226, -65.4965], [109.7927, -65.6914], [109.8085, -65.8153], [109.8335, -65.946], [109.9486, -66.0829], [109.9923, -66.2135], [109.9632, -66.2154], [110.2278, -66.1986], [110.3783, -66.2532], [110.3213, -66.2532], [110.5376, -66.2708], [110.533, -66.2683], [110.5334, -66.2682], [110.5337, -66.2682], [110.5336, -66.2683], [110.5347, -66.2687], [110.5336, -66.2691], [110.5338, -66.2693], [110.5344, -66.2694], [110.533, -66.2695], [110.5326, -66.2693], [110.5331, -66.2694], [110.5336, -66.2694], [110.5324, -66.2694], [110.5325, -66.2693], [110.5327, -66.2689], [110.5327, -66.2688], [110.5322, -66.269], [110.5326, -66.2693], [110.5325, -66.2692], [110.5324, -66.2685], [110.5327, -66.2683], [110.5331, -66.2681], [110.533, -66.2682], [110.5341, -66.2682], [110.5346, -66.2681], [110.5342, -66.2682], [110.5348, -66.2683], [110.5343, -66.2683], [110.5339, -66.2682], [110.5349, -66.2684], [110.5344, -66.2682], [110.533, -66.2683], [110.5325, -66.2683], [110.533, -66.2683], [110.534, -66.2683], [110.5343, -66.2683], [110.5341, -66.2683], [110.5333, -66.2683], [110.5327, -66.2688], [110.5331, -66.2699], [110.5339, -66.2702], [110.5334, -66.2701], [110.5326, -66.27], [110.5332, -66.27], [110.252, -66.2412], [110.1212, -66.1424], [109.9156, -66.025], [109.9155, -66.0198], [109.9082, -66.0686], [110.0097, -66.1505], [110.0283, -66.1625], [109.9524, -66.1006], [110.0357, -66.1733], [110.1373, -66.1873], [110.2609, -66.2235], [110.4512, -66.2573], [110.4003, -66.3077], [110.3873, -66.246], [110.4393, -66.251], [110.3727, -66.2431], [110.4428, -66.257], [110.3576, -66.241], [110.2786, -66.2409], [110.0692, -66.2495], [110.0701, -66.2336], [110.0514, -66.2414], [110.0674, -66.1716], [110.0835, -66.2262], [110.1433, -66.2525], [110.0222, -66.2568], [110.2354, -66.2441], [110.4313, -66.2503], [110.4737, -66.2563], [110.5357, -66.2656], [110.535, -66.2665], [110.535, -66.266], [110.2989, -66.2324], [109.8512, -66.0675], [109.4457, -65.8816], [109.6069, -65.6327], [109.6574, -65.4323], [109.6809, -65.2485], [109.8407, -65.0464], [110.0843, -64.959], [110.3249, -64.8978], [110.6159, -64.7344], [110.7066, -64.8049], [110.91, -64.7], [111.0891, -64.4684], [110.9437, -64.2836], [111.0559, -64.1447], [111.1748, -63.9398], [111.0724, -63.6785], [110.9977, -63.4751], [111.13, -63.2674], [111.3837, -63.1133], [111.6181, -62.9873], [111.4536, -62.8315], [111.4174, -62.5254], [111.4561, -62.2377], [111.4928, -61.9155], [111.4257, -61.6439], [111.5252, -61.4161], [111.2927, -61.2766], [110.7176, -61.2536], [110.2554, -61.1923], [109.7512, -61.1142], [109.1857, -61.127], [108.5571, -61.1517], [107.9175, -61.17], [107.4815, -61.0552], [106.8356, -61.0498], [106.1883, -61.0616], [105.5479, -61.0769], [104.9001, -61.075], [104.2593, -61.089], [103.6179, -61.0895], [102.9633, -61.091], [102.3024, -61.1028], [101.6816, -61.0865], [101.1527, -61.0566], [100.5663, -61.0592], [100.0034, -61.0757], [99.3925, -61.0544], [98.7445, -61.0556], [98.2786, -61.0007], [97.7375, -61.025], [97.1171, -61.0224], [96.4954, -61.0042], [95.8732, -60.9917], [95.2544, -61.0003], [94.6572, -61.0833], [94.0616, -61.1698], [93.4375, -61.2021], [92.8365, -61.2787], [92.3553, -61.3617], [91.7393, -61.4332], [91.1247, -61.5183], [90.5116, -61.5933], [89.9088, -61.6655], [89.3011, -61.7395], [88.6926, -61.7131], [88.1734, -61.8178], [87.5854, -61.9026], [87.0018, -61.9723], [86.4177, -62.0561], [85.8274, -62.1575], [85.2999, -62.2655], [84.7704, -62.3343], [84.2714, -62.5016], [83.8446, -62.6956], [83.4398, -62.9207], [82.9756, -63.1332], [82.5113, -63.3414], [82.0656, -63.5392], [81.6118, -63.7138], [81.1445, -63.8977], [80.7007, -64.0956], [80.2349, -64.2922], [79.8535, -64.5047], [79.6136, -64.774], [79.2527, -65.0047], [79.122, -65.1838], [78.8088, -65.359], [78.3783, -65.5913], [77.966, -65.8498], [77.587, -66.1246], [77.1709, -66.3701], [76.8194, -66.5446], [76.5038, -66.775], [76.4684, -67.066], [76.4737, -67.3377], [76.2616, -67.5781], [75.9882, -67.8381], [76.1641, -68.0919], [76.5199, -68.3279], [76.9546, -68.4404], [77.4104, -68.546], [77.4096, -68.5515], [77.6356, -68.5634], [77.9143, -68.5634], [77.9248, -68.5729], [77.9253, -68.5729], [77.9258, -68.573], [77.9257, -68.573], [77.925, -68.573], [77.9244, -68.5729], [77.9255, -68.5731], [77.9258, -68.573], [77.924, -68.5725], [77.8752, -68.5623], [77.5155, -68.5604], [77.3121, -68.5429], [77.405, -68.554], [77.4385, -68.5684], [77.285, -68.5184], [77.2614, -68.5158], [77.563, -68.5657], [77.5652, -68.5653], [77.8541, -68.5661], [77.9226, -68.5725], [77.868, -68.5632], [77.4759, -68.5664], [76.875, -68.4179], [76.6091, -68.3515], [76.1073, -68.1523], [76.0018, -67.9175], [75.6269, -67.7161], [75.5424, -67.4372], [75.6912, -67.1571], [75.8882, -66.8758], [76.1073, -66.5976], [76.4979, -66.353], [76.8178, -66.0932], [76.8875, -65.9432], [76.6122, -65.6759], [76.2013, -65.4341], [75.9864, -65.2288], [76.0172, -65.1325], [76.0999, -64.8452], [76.1816, -64.5555], [76.3669, -64.3113], [76.5053, -64.1303], [76.7512, -63.8634], [77.1602, -63.6622], [77.1201, -63.4347], [76.8372, -63.1828], [76.5029, -62.9368], [76.2786, -62.6976], [76.3525, -62.3823], [76.4377, -62.0698], [76.5789, -61.7702], [76.6297, -61.4674], [76.7041, -61.1656], [76.7795, -60.8639], [76.8516, -60.5651], [76.9264, -60.2622], [76.9935, -59.9638], [77.0698, -59.667], [77.1704, -59.3655], [77.2852, -59.0708], [77.263, -58.7878], [77.0869, -58.5125], [76.8915, -58.2379], [76.7036, -57.965], [76.4637, -57.7039], [76.2234, -57.4373], [75.9877, -57.1652], [75.7405, -56.9135], [75.5083, -56.6879], [75.257, -56.4429], [75.026, -56.1782], [74.8019, -55.9125], [74.6165, -55.6868], [74.4405, -55.4638], [74.2465, -55.2529], [74.0522, -55.0029], [73.8371, -54.7387], [73.6295, -54.4763], [73.464, -54.2163], [73.3468, -53.9938], [73.5296, -53.7255], [73.7659, -53.4378], [73.9882, -53.1672], [73.9344, -52.9433], [73.5045, -52.9764], [73.4798, -52.9624], [73.6741, -52.9643], [73.4536, -52.9762], [73.3761, -53.0129], [73.3769, -53.0121], [73.3743, -53.0117], [73.3766, -53.0131], [73.3767, -53.0137], [73.3778, -53.0135], [73.3781, -53.0129], [73.3778, -53.0139], [73.3777, -53.0143], [73.3777, -53.0097], [73.4189, -52.9799], [73.6392, -53.012], [73.8748, -53.047], [73.7193, -52.9833], [73.8189, -53.0167], [73.6824, -53.0249], [73.7594, -53.0417], [73.4327, -52.9781], [73.383, -53.0024], [73.3757, -53.0114], [73.3742, -53.0129], [73.3731, -53.012], [73.3723, -53.0123], [73.3759, -53.0058], [73.2459, -52.9433], [72.8417, -53.0362], [72.6614, -53.0719], [72.5278, -53.05], [72.4688, -52.9929], [72.7255, -53.1497], [73.1314, -53.2121], [73.5577, -53.2542], [73.9693, -53.2363], [74.3221, -53.2278], [74.6981, -53.2242], [75.1127, -53.2152], [75.5203, -53.2071], [75.9738, -53.2039], [76.4502, -53.2003], [76.8327, -53.197], [77.1668, -53.1877], [77.5048, -53.178], [77.8184, -53.1758], [78.1175, -53.1662], [78.427, -53.1562], [78.7755, -53.1481], [79.1527, -53.1517], [79.5302, -53.1366], [79.9035, -53.125], [80.3475, -53.1203], [80.6507, -53.0178], [80.9523, -52.9169], [81.2482, -52.8107], [81.545, -52.7004], [81.8814, -52.5792], [82.1959, -52.4048], [82.4923, -52.205], [82.7548, -51.9877], [83.0564, -51.7716], [83.4213, -51.6019], [83.7757, -51.4244], [84.108, -51.2331], [84.4621, -51.0631], [84.8115, -50.8982], [85.164, -50.7339], [85.4531, -50.597], [85.7275, -50.4653], [86.0072, -50.3307], [86.2845, -50.1968], [86.5599, -50.0655], [86.8396, -49.9399], [87.1134, -49.8123], [87.3929, -49.6837], [87.6699, -49.5498], [87.9405, -49.4059], [88.2152, -49.2719], [88.4772, -49.1256], [88.7438, -48.9826], [89.0181, -48.8443], [89.2864, -48.7017], [89.549, -48.5542], [89.8326, -48.4305], [90.1108, -48.3076], [90.374, -48.1814], [90.6377, -48.0467], [90.9048, -47.9124], [91.1745, -47.7777], [91.4445, -47.6417], [91.7192, -47.4941], [91.9888, -47.3443], [92.2706, -47.2046], [92.543, -47.06], [92.824, -46.9299], [93.0958, -46.8005], [93.3575, -46.6635], [93.6175, -46.523], [93.8714, -46.3754], [94.1088, -46.2293], [94.3619, -46.0752], [94.6187, -45.924], [94.889, -45.7632], [95.1577, -45.5961], [95.421, -45.4307], [95.6745, -45.2661], [95.9186, -45.1007], [96.1592, -44.9337], [96.4098, -44.7722], [96.6691, -44.6063], [96.9375, -44.4428], [97.2248, -44.2616], [97.5361, -44.0734], [97.838, -43.8845], [98.1354, -43.7011], [98.4272, -43.4897], [98.7353, -43.2891], [99.0498, -43.0959], [99.3759, -42.9065], [99.6756, -42.6963], [99.9715, -42.4859], [100.2717, -42.2762], [100.498, -42.1223]]}}, {"type": "Feature", "properties": {"vessel_name": "Aurora Australis", "voyage_id": "AAD-2017-18", "country": "Australia", "source": "Australian Antarctic Division (AAD)", "observation_count": 2100, "total_distance_km": 7390.6, "start_date": "", "end_date": ""}, "geometry": {"type": "LineString", "coordinates": [[147.34156, -42.881894], [147.376052, -42.963064], [147.490875, -43.199709], [147.412098, -43.43455], [147.180508, -43.637979], [146.833377, -43.757671], [146.494299, -43.881023], [146.14509, -43.996439], [145.795186, -44.120653], [145.449329, -44.247498], [145.094295, -44.365856], [144.746044, -44.483994], [144.411614, -44.596511], [144.08257, -44.707827], [143.739534, -44.826418], [143.413429, -44.960924], [143.178198, -45.17236], [142.96237, -45.386568], [142.740184, -45.593501], [142.525563, -45.797464], [142.302696, -45.999884], [142.073517, -46.203552], [141.844583, -46.408309], [141.60995, -46.617128], [141.36898, -46.832655], [141.141266, -47.049642], [140.88069, -47.26486], [140.622299, -47.486399], [140.369408, -47.716165], [140.113138, -47.945077], [139.857859, -48.172456], [139.596992, -48.396764], [139.334235, -48.627479], [139.06957, -48.853742], [138.815434, -49.077134], [138.55447, -49.305455], [138.287177, -49.533014], [137.99033, -49.741102], [137.719495, -49.970376], [137.448703, -50.198288], [137.18066, -50.425211], [136.910771, -50.64992], [136.632514, -50.865066], [136.35142, -51.075828], [136.085047, -51.285606], [135.826793, -51.499618], [135.570412, -51.699779], [135.347473, -51.88218], [135.082353, -52.094761], [134.798865, -52.314209], [134.506415, -52.534122], [134.218868, -52.746467], [133.966609, -52.954912], [133.709531, -53.155164], [133.442909, -53.348262], [133.184553, -53.547076], [132.922973, -53.752173], [132.672316, -53.945676], [132.414938, -54.123374], [132.147076, -54.284285], [131.870649, -54.429011], [131.567432, -54.555226], [131.248111, -54.66866], [130.935402, -54.712985], [130.635029, -54.740761], [130.357307, -54.781748], [130.096209, -54.821276], [129.843378, -54.85513], [129.612147, -54.89063], [129.380506, -54.937311], [129.165747, -54.984022], [128.9592, -55.030914], [128.784937, -55.06825], [128.600407, -55.103363], [128.779939, -55.159623], [129.004208, -55.220925], [128.741763, -55.267872], [128.48208, -55.311478], [128.217576, -55.351583], [127.937428, -55.385001], [127.635094, -55.428547], [127.294204, -55.483237], [126.937456, -55.546017], [126.590051, -55.613152], [126.261049, -55.680031], [125.871437, -55.74166], [125.470352, -55.809951], [125.055902, -55.876973], [124.622491, -55.949948], [124.177191, -56.029626], [123.715984, -56.098438], [123.244609, -56.164859], [122.765606, -56.24001], [122.280109, -56.318797], [121.7819, -56.397614], [121.285773, -56.47864], [120.784563, -56.565076], [120.2821, -56.643896], [119.788996, -56.73024], [119.288258, -56.825441], [118.775598, -56.90317], [118.305961, -56.970378], [117.931239, -57.024225], [117.551538, -57.079022], [117.121685, -57.158458], [116.612996, -57.239351], [116.109984, -57.322295], [115.600098, -57.399969], [115.075149, -57.473102], [114.595142, -57.538288], [114.127116, -57.597522], [113.665404, -57.65778], [113.239526, -57.735446], [112.796086, -57.817784], [112.350137, -57.892919], [111.902287, -57.96909], [111.444013, -58.047743], [110.987242, -58.132429], [110.53305, -58.204298], [110.080309, -58.263221], [109.700279, -58.315033], [109.328865, -58.369368], [108.953474, -58.431977], [108.500156, -58.503917], [108.030277, -58.572885], [107.563304, -58.639684], [107.104334, -58.707007], [106.645876, -58.770885], [106.186524, -58.838145], [105.726123, -58.904234], [105.267899, -58.983509], [104.796047, -59.065908], [104.308029, -59.138248], [103.817053, -59.20966], [103.327754, -59.284769], [102.838873, -59.356136], [102.353787, -59.426127], [101.873063, -59.494162], [101.423979, -59.563407], [101.033215, -59.620772], [100.633119, -59.680422], [100.196306, -59.747615], [99.698828, -59.818315], [99.206666, -59.889572], [98.721742, -59.95858], [98.241265, -60.023431], [97.756625, -60.097199], [97.338932, -60.244365], [96.919313, -60.402596], [96.498535, -60.566629], [96.067291, -60.723029], [95.627448, -60.89249], [95.18729, -61.062331], [94.736159, -61.219953], [94.294842, -61.381638], [93.859086, -61.539274], [93.429336, -61.686931], [93.061006, -61.824137], [92.721489, -61.958375], [92.32202, -62.10279], [91.854894, -62.260623], [91.391162, -62.424426], [90.921254, -62.586945], [90.45835, -62.761741], [89.971677, -62.926098], [89.494808, -63.089862], [89.015805, -63.244525], [88.545977, -63.384761], [88.103727, -63.516792], [87.644063, -63.67631], [87.293522, -63.812895], [86.832663, -63.956235], [86.361042, -64.069824], [85.929612, -64.137015], [85.344348, -64.188024], [84.707551, -64.263958], [84.121495, -64.336874], [83.598195, -64.448083], [82.982593, -64.484783], [82.405793, -64.477782], [81.930885, -64.567061], [81.351779, -64.720171], [80.736777, -64.855915], [80.154149, -65.006207], [79.691142, -65.234462], [79.246785, -65.472928], [78.807465, -65.697136], [78.326688, -65.908264], [77.925194, -66.166923], [77.68364, -66.444164], [77.496394, -66.737618], [77.367589, -67.02784], [77.382385, -67.319301], [77.440495, -67.6099], [77.509928, -67.903193], [77.530686, -68.201941], [77.525075, -68.412936], [77.661464, -68.530721], [77.931177, -68.572957], [77.929199, -68.573924], [77.92943, -68.573952], [77.929104, -68.573948], [77.930012, -68.574067], [77.930276, -68.574091], [77.930318, -68.574138], [77.930529, -68.574098], [77.93059, -68.574145], [77.930729, -68.574129], [77.930051, -68.574087], [77.928529, -68.57373], [77.930176, -68.573981], [77.928967, -68.573706], [77.928465, -68.573623], [77.929267, -68.573647], [77.928504, -68.57354], [77.928003, -68.573374], [77.928098, -68.573472], [77.927779, -68.573473], [77.927913, -68.573293], [77.928319, -68.573616], [77.928392, -68.573546], [77.787988, -68.568273], [77.530726, -68.42273], [77.531405, -68.312228], [77.613376, -68.213746], [77.607744, -68.108241], [77.444157, -68.203472], [77.205208, -68.330205], [76.932209, -68.445736], [77.235336, -68.397022], [77.388364, -68.286623], [77.493845, -68.176229], [77.507612, -68.25417], [77.568062, -68.176293], [77.538983, -68.309429], [77.557951, -68.469294], [77.241335, -68.605589], [77.608482, -68.572304], [77.655743, -68.592205], [77.665077, -68.585037], [77.936202, -68.571849], [77.931686, -68.573917], [77.930903, -68.573575], [77.930962, -68.573543], [77.930469, -68.573426], [77.931336, -68.573451], [77.931743, -68.5734], [77.931128, -68.573613], [77.931959, -68.57376], [77.934032, -68.572789], [77.93045, -68.573665], [77.931058, -68.573547], [77.930339, -68.573453], [77.93077, -68.573613], [77.930078, -68.573587], [77.700595, -68.56687], [77.367755, -68.40999], [77.163716, -68.23385], [76.745631, -68.045484], [76.111784, -67.916301], [75.462691, -67.793615], [74.82311, -67.669725], [74.178176, -67.53955], [73.537598, -67.416274], [72.926406, -67.294273], [72.318689, -67.166462], [71.700543, -67.04472], [71.096356, -66.914833], [70.477858, -66.795706], [69.884855, -66.666077], [69.278366, -66.550018], [68.64222, -66.479975], [68.01916, -66.456203], [67.477598, -66.477496], [66.916034, -66.465046], [66.421269, -66.466925], [66.103954, -66.49271], [65.727437, -66.597884], [65.42753, -66.6529], [64.984354, -66.716804], [64.460045, -66.74522], [63.949092, -66.749309], [63.508971, -66.790836], [63.19942, -66.917015], [63.118766, -67.025762], [63.104052, -67.088963], [63.088757, -67.139916], [63.076422, -67.19755], [63.053038, -67.232214], [63.006104, -67.266562], [62.882492, -67.339181], [62.860734, -67.361236], [62.830078, -67.351635], [62.812093, -67.354213], [62.806558, -67.352366], [62.852204, -67.371748], [62.862166, -67.49304], [62.850254, -67.595579], [62.87774, -67.537991], [62.851388, -67.362083], [62.875142, -67.339095], [62.913972, -67.321319], [62.94372, -67.30661], [62.945396, -67.303558], [62.937063, -67.306738], [62.917489, -67.312933], [62.904386, -67.316724], [62.927884, -67.309143], [62.918232, -67.321098], [62.845689, -67.37586], [62.818867, -67.441106], [62.802665, -67.457933], [62.847608, -67.457525], [62.862582, -67.47063], [62.848175, -67.466155], [62.880185, -67.485304], [62.884662, -67.484561], [62.882094, -67.485424], [62.880472, -67.485054], [62.791972, -67.467031], [62.787998, -67.449874], [62.816303, -67.447838], [62.809189, -67.449218], [62.834884, -67.449153], [62.797062, -67.463594], [62.841792, -67.449278], [62.838406, -67.473594], [62.854835, -67.486601], [62.865979, -67.559635], [62.858559, -67.556086], [62.848638, -67.593811], [62.853456, -67.597826], [62.861462, -67.597366], [62.858697, -67.59652], [62.857689, -67.596328], [62.871715, -67.520251], [62.850433, -67.365893], [62.928392, -67.31506], [62.991616, -67.271522], [63.026364, -67.249744], [63.055096, -67.233783], [63.034399, -67.247881], [62.983349, -67.276614], [62.933485, -67.309], [62.853, -67.363988], [62.835603, -67.406735], [62.840877, -67.408028], [62.819364, -67.422132], [62.856766, -67.413377], [62.847713, -67.420546], [62.788188, -67.41605], [62.837771, -67.398003], [62.843824, -67.38054], [62.851519, -67.357049], [62.863014, -67.340821], [62.89366, -67.33934], [62.89314, -67.341112], [62.885094, -67.343735], [62.867441, -67.3475], [62.852313, -67.350146], [62.849501, -67.369681], [62.84052, -67.392843], [62.830551, -67.426097], [62.864273, -67.454418], [62.890981, -67.459167], [62.783431, -67.464243], [62.875046, -67.462824], [62.828589, -67.475137], [62.794969, -67.476686], [62.796327, -67.478451], [62.847803, -67.461521], [62.827075, -67.39111], [62.865772, -67.344994], [62.893781, -67.327329], [62.92348, -67.319419], [62.923332, -67.322066], [62.897348, -67.334883], [62.874852, -67.343126], [62.852669, -67.355717], [62.841151, -67.399953], [62.847579, -67.462634], [62.848862, -67.588749], [62.846052, -67.595868], [62.846493, -67.595814], [62.856672, -67.59571], [62.856099, -67.594786], [62.852675, -67.596546], [62.853534, -67.596931], [62.853371, -67.596753], [62.853037, -67.596965], [62.844324, -67.560457], [62.661979, -67.563622], [62.776043, -67.565791], [62.86679, -67.561165], [62.793965, -67.561733], [62.705154, -67.564586], [62.758996, -67.565213], [62.77484, -67.563976], [62.736559, -67.565746], [62.847509, -67.597957], [62.853044, -67.597098], [62.857306, -67.599018], [62.856521, -67.598982], [62.856574, -67.598985], [62.856589, -67.59892], [62.856538, -67.599004], [62.8566, -67.598914], [62.856594, -67.598958], [62.856511, -67.598996], [62.856601, -67.598359], [62.801631, -67.561368], [62.682716, -67.563679], [62.753349, -67.565676], [62.862385, -67.56255], [62.751885, -67.564816], [62.775885, -67.564169], [62.85995, -67.581061], [62.854872, -67.597233], [62.856968, -67.59897], [62.857067, -67.598963], [62.857017, -67.59898], [62.857063, -67.598968], [62.857032, -67.59901], [62.856966, -67.599021], [62.857155, -67.598884], [62.856252, -67.599437], [62.777925, -67.563978], [62.804638, -67.569546], [62.866451, -67.558206], [62.805242, -67.564961], [62.83039, -67.567248], [62.811574, -67.561787], [62.712524, -67.565079], [62.703051, -67.564479], [62.835686, -67.560499], [62.848324, -67.596127], [62.847916, -67.595581], [62.848583, -67.594936], [62.851166, -67.596951], [62.869448, -67.599537], [62.848466, -67.594328], [62.858954, -67.595797], [62.86729, -67.601632], [62.873111, -67.572949], [62.785463, -67.564918], [62.682908, -67.56471], [62.754281, -67.56683], [62.82901, -67.565388], [62.860144, -67.558983], [62.799566, -67.561634], [62.732976, -67.56524], [62.694977, -67.563701], [62.804776, -67.562599], [62.771078, -67.563057], [62.795652, -67.567147], [62.844992, -67.595654], [62.85318, -67.596025], [62.856478, -67.595989], [62.855363, -67.596817], [62.857239, -67.596617], [62.859404, -67.596104], [62.856897, -67.597519], [62.855623, -67.56577], [62.756702, -67.563575], [62.706842, -67.564775], [62.875291, -67.558359], [62.746297, -67.564946], [62.717163, -67.565183], [62.811244, -67.561064], [62.725253, -67.566771], [62.779955, -67.564517], [62.836896, -67.538813], [62.849761, -67.596416], [62.853281, -67.596217], [62.853369, -67.596475], [62.853995, -67.596327], [62.852962, -67.59627], [62.855236, -67.596899], [62.857493, -67.596258], [62.8572, -67.59639], [62.873902, -67.559876], [62.851251, -67.385318], [62.879383, -67.332209], [62.905471, -67.325756], [62.892406, -67.326931], [62.908249, -67.326845], [62.88171, -67.337525], [62.855808, -67.3392], [62.838769, -67.337769], [62.840257, -67.340881], [62.872507, -67.328797], [62.871167, -67.328004], [62.868472, -67.329611], [62.845542, -67.332314], [62.841972, -67.329077], [62.866151, -67.334459], [62.845844, -67.340727], [62.857482, -67.341917], [62.853339, -67.342828], [62.84329, -67.338698], [62.83673, -67.3381], [62.82331, -67.343454], [62.835124, -67.355271], [62.842009, -67.353434], [62.911418, -67.351553], [62.866578, -67.353048], [62.838631, -67.442617], [62.849969, -67.595702], [62.850354, -67.59602], [62.851502, -67.595904], [62.854864, -67.597168], [62.853466, -67.596915], [62.854565, -67.597291], [62.854787, -67.596539], [62.854266, -67.595776], [62.855301, -67.596554], [62.869736, -67.571031], [62.703271, -67.564186], [62.755576, -67.565187], [62.756438, -67.563368], [62.708204, -67.565346], [62.843981, -67.559981], [62.66453, -67.564374], [62.751105, -67.566004], [62.878263, -67.554851], [62.851504, -67.594101]]}}, {"type": "Feature", "properties": {"vessel_name": "RV Polarstern", "voyage_id": "ANT-V-2-1986", "country": "Germany", "source": "PANGAEA", "observation_count": 479, "total_distance_km": 17202.9, "start_date": "1986-06-28T12:00", "end_date": "1986-09-16T15:00"}, "geometry": {"type": "LineString", "coordinates": [[-55.6, -42.2], [-54.9, -42.6], [-54.3, -42.9], [-53.9, -43.2], [-53.3, -43.4], [-51.5, -44.2], [-51.0, -44.4], [-51.0, -44.5], [-51.0, -44.5], [-50.9, -44.5], [-50.3, -44.7], [-48.6, -45.6], [-47.9, -45.8], [-47.7, -45.9], [-47.2, -46.2], [-46.8, -46.4], [-45.3, -47.0], [-44.8, -47.3], [-44.3, -47.5], [-43.7, -47.8], [-43.2, -48.0], [-42.6, -48.2], [-40.7, -49.0], [-40.2, -49.3], [-39.7, -49.5], [-39.1, -49.8], [-38.4, -50.1], [-37.7, -50.4], [-35.6, -51.2], [-35.1, -51.4], [-34.6, -51.7], [-34.0, -51.9], [-33.3, -52.2], [-32.7, -52.4], [-30.7, -53.2], [-30.0, -53.5], [-29.3, -53.8], [-28.6, -54.0], [-27.9, -54.3], [-27.4, -54.5], [-25.9, -54.9], [-25.2, -55.1], [-24.5, -55.3], [-23.8, -55.6], [-23.1, -55.4], [-22.2, -54.9], [-19.1, -53.6], [-18.4, -53.3], [-17.3, -52.8], [-16.3, -52.4], [-15.3, -51.9], [-14.3, -51.5], [-11.3, -50.1], [-10.4, -49.7], [-9.5, -49.2], [-8.6, -48.9], [-7.9, -48.4], [-7.0, -48.0], [-4.4, -46.7], [-3.7, -46.3], [-2.7, -45.8], [-1.9, -45.4], [-0.9, -44.9], [-0.1, -44.5], [2.5, -43.0], [3.2, -42.7], [4.1, -42.2], [4.9, -41.8], [5.7, -41.3], [6.4, -40.9], [8.9, -39.4], [9.6, -39.1], [10.3, -38.7], [11.0, -38.3], [11.8, -37.8], [12.6, -37.4], [13.3, -36.9], [14.0, -36.5], [14.7, -36.1], [15.4, -35.7], [16.9, -34.8], [17.5, -34.9], [17.1, -35.5], [16.7, -36.1], [15.4, -38.1], [15.0, -38.7], [14.4, -39.5], [14.0, -40.2], [13.5, -40.9], [13.1, -41.5], [11.6, -43.5], [11.2, -44.1], [10.8, -44.7], [10.4, -45.2], [10.0, -45.7], [9.7, -46.1], [8.5, -47.7], [8.1, -48.2], [7.7, -48.8], [7.2, -49.3], [6.7, -49.9], [6.3, -50.5], [4.9, -52.1], [4.4, -52.6], [4.0, -53.2], [3.6, -53.8], [3.2, -54.4], [2.6, -54.9], [1.0, -56.4], [0.6, -56.7], [0.2, -57.0], [-0.1, -57.4], [-0.6, -58.0], [-1.0, -58.5], [-1.0, -58.5], [-1.0, -58.5], [-1.0, -59.1], [-1.0, -59.0], [-1.0, -59.0], [-1.0, -59.4], [-1.0, -60.3], [-1.0, -60.5], [-1.0, -60.8], [-1.1, -61.0], [-1.0, -61.0], [-1.0, -61.2], [-1.0, -61.5], [-1.0, -61.5], [-1.0, -61.6], [-1.0, -62.0], [-1.0, -62.0], [-1.0, -62.0], [-1.1, -62.5], [-1.1, -62.5], [-1.2, -62.6], [-1.3, -62.8], [-1.3, -62.8], [-1.3, -62.8], [-2.0, -62.9], [-2.6, -62.9], [-2.7, -62.9], [-2.7, -62.9], [-2.5, -63.2], [-2.2, -63.4], [-2.2, -63.6], [-2.2, -63.6], [-2.3, -63.7], [-2.4, -63.8], [-2.5, -63.9], [-2.3, -64.0], [-1.8, -64.3], [-1.7, -64.5], [-2.0, -64.7], [-2.0, -64.7], [-2.2, -64.7], [-2.1, -64.8], [-2.1, -65.2], [-2.1, -65.2], [-2.4, -65.3], [-2.7, -65.5], [-3.0, -65.6], [-3.1, -65.6], [-3.0, -66.2], [-2.7, -66.3], [-2.5, -66.4], [-2.1, -66.6], [-2.1, -66.7], [-2.1, -66.7], [-1.6, -66.5], [-1.0, -66.3], [-1.1, -66.3], [-0.7, -66.2], [-0.3, -66.0], [-0.2, -65.9], [1.2, -65.5], [1.5, -65.4], [1.6, -65.3], [1.7, -65.3], [1.7, -65.3], [1.8, -65.3], [1.9, -65.3], [1.9, -65.3], [2.0, -65.3], [2.0, -65.3], [2.1, -65.3], [2.1, -65.3], [2.4, -65.3], [2.4, -65.3], [2.5, -65.4], [2.6, -65.4], [2.7, -65.4], [2.8, -65.5], [3.0, -65.6], [3.0, -65.6], [3.0, -65.6], [3.0, -65.6], [3.0, -65.6], [3.0, -65.6], [3.2, -65.6], [3.2, -65.6], [3.2, -65.6], [3.3, -65.6], [3.3, -65.6], [3.3, -65.6], [3.8, -65.1], [3.9, -65.0], [4.2, -64.8], [4.4, -64.5], [4.4, -64.5], [4.8, -64.4], [5.2, -64.1], [5.6, -64.3], [5.6, -64.3], [6.0, -64.5], [6.3, -64.6], [6.6, -64.7], [7.3, -65.0], [7.6, -65.2], [7.9, -65.4], [8.0, -65.3], [8.0, -65.3], [8.0, -65.3], [7.2, -65.7], [7.0, -65.8], [6.8, -65.9], [6.6, -65.9], [6.5, -66.1], [6.2, -66.2], [5.7, -66.4], [5.4, -66.5], [5.0, -66.7], [5.0, -66.7], [5.0, -66.7], [4.5, -66.9], [3.7, -67.3], [3.4, -67.4], [3.2, -67.5], [2.7, -67.7], [2.7, -67.7], [2.5, -67.9], [1.6, -68.2], [1.3, -68.3], [1.2, -68.4], [1.1, -68.4], [1.1, -68.4], [1.1, -68.4], [0.9, -68.5], [0.9, -68.5], [0.8, -68.6], [0.8, -68.6], [0.9, -68.6], [0.9, -68.6], [1.0, -68.7], [1.0, -68.7], [1.0, -68.7], [1.0, -68.7], [1.0, -68.7], [1.0, -68.7], [0.9, -68.7], [0.9, -68.7], [0.9, -68.7], [0.9, -68.8], [0.9, -68.8], [0.9, -68.8], [0.9, -68.8], [0.9, -68.8], [0.9, -68.8], [0.7, -68.8], [0.7, -68.8], [0.4, -68.8], [0.2, -68.9], [0.2, -68.9], [0.2, -68.9], [0.2, -68.9], [0.2, -68.9], [0.2, -68.9], [0.0, -69.1], [0.0, -69.2], [0.0, -69.2], [-0.1, -69.3], [-0.2, -69.3], [-0.3, -69.4], [-0.4, -69.5], [-0.4, -69.5], [-0.5, -69.5], [-0.5, -69.5], [-0.5, -69.5], [-0.7, -69.4], [-1.2, -69.3], [-1.2, -69.3], [-1.3, -69.3], [-1.4, -69.3], [-1.6, -69.3], [-1.8, -69.3], [-2.3, -69.4], [-2.3, -69.4], [-2.5, -69.5], [-2.6, -69.4], [-3.1, -69.2], [-3.6, -69.1], [-4.1, -69.1], [-4.1, -69.1], [-4.3, -69.2], [-4.4, -69.2], [-4.5, -69.1], [-4.3, -68.9], [-4.4, -68.8], [-4.3, -68.7], [-3.8, -68.7], [-3.7, -68.6], [-3.5, -68.6], [-3.0, -68.5], [-2.1, -68.1], [-1.8, -68.0], [-1.9, -67.9], [-1.9, -67.7], [-2.0, -67.6], [-1.9, -67.6], [-0.9, -67.5], [-0.6, -67.4], [-0.4, -67.4], [0.0, -67.2], [-0.1, -67.1], [-0.1, -67.1], [0.9, -66.8], [1.1, -66.7], [1.3, -66.6], [1.5, -66.5], [1.7, -66.4], [1.9, -66.3], [2.5, -66.0], [2.5, -65.9], [2.5, -65.8], [2.5, -65.8], [2.6, -65.6], [2.4, -65.5], [2.5, -65.1], [2.5, -65.0], [2.5, -64.9], [2.5, -64.9], [2.6, -64.8], [2.8, -64.8], [3.1, -64.6], [3.1, -64.6], [3.2, -64.5], [3.2, -64.5], [3.1, -64.4], [2.8, -64.3], [2.1, -64.1], [1.9, -64.0], [1.7, -63.9], [1.5, -63.8], [1.5, -63.6], [1.4, -63.6], [1.9, -63.5], [2.3, -63.5], [2.3, -63.5], [2.7, -63.4], [3.1, -63.3], [3.1, -63.3], [3.6, -62.9], [3.6, -62.9], [3.7, -62.8], [3.7, -62.8], [3.7, -62.7], [3.9, -62.6], [4.5, -62.4], [4.8, -62.2], [4.8, -62.2], [4.8, -62.2], [5.2, -62.1], [5.4, -62.1], [6.2, -61.7], [6.7, -61.5], [7.0, -61.4], [6.5, -61.5], [6.5, -61.5], [6.5, -61.5], [6.6, -61.5], [6.6, -61.5], [6.6, -61.5], [6.7, -61.5], [6.7, -61.5], [6.8, -61.5], [6.9, -61.4], [6.9, -61.4], [6.9, -61.4], [6.9, -61.4], [6.9, -61.4], [7.0, -61.5], [7.2, -61.4], [7.2, -61.4], [7.3, -61.4], [7.4, -61.4], [7.4, -61.4], [7.4, -61.4], [7.5, -61.3], [7.5, -61.3], [7.5, -61.3], [7.5, -61.2], [7.5, -61.1], [7.4, -61.0], [7.3, -60.5], [7.2, -60.4], [7.1, -60.2], [7.1, -60.0], [7.1, -59.9], [6.9, -59.8], [6.8, -59.4], [6.8, -59.3], [6.7, -59.1], [6.7, -59.0], [6.8, -58.9], [6.5, -58.7], [6.3, -58.2], [6.2, -58.0], [6.4, -57.9], [6.1, -57.7], [6.0, -57.5], [6.0, -57.5], [6.5, -56.9], [6.6, -56.8], [6.7, -56.5], [6.9, -56.2], [7.1, -55.9], [7.1, -55.9], [7.3, -55.7], [7.2, -55.8], [7.4, -55.9], [7.3, -56.1], [7.3, -56.4], [7.3, -56.5], [7.2, -57.3], [7.2, -57.5], [7.3, -57.4], [7.2, -57.3], [7.2, -57.0], [7.3, -56.8], [7.2, -56.1], [7.3, -56.0], [7.1, -55.9], [7.4, -55.6], [7.7, -55.3], [7.9, -55.0], [8.5, -53.7], [8.7, -53.3], [8.6, -52.8], [8.9, -52.3], [9.2, -51.7], [9.5, -51.2], [10.5, -49.5], [10.7, -49.1], [11.0, -48.6], [11.2, -48.2], [11.4, -48.0], [11.6, -47.7], [12.4, -46.5], [12.7, -46.1], [12.9, -45.7], [13.2, -45.2], [13.4, -44.7], [13.6, -44.2], [14.3, -42.6], [14.6, -42.2], [14.9, -41.6], [15.2, -41.2], [15.3, -40.8], [15.6, -40.4], [16.0, -39.4], [16.2, -39.1], [16.6, -38.7], [16.9, -38.4], [17.0, -38.1], [16.9, -37.6], [17.1, -36.5], [17.3, -36.1], [17.3, -36.1], [17.5, -35.9], [17.8, -35.5]]}}, {"type": "Feature", "properties": {"vessel_name": "RV Polarstern", "voyage_id": "ANT-XX-3-2003", "country": "Germany", "source": "PANGAEA", "observation_count": 3317, "total_distance_km": 12194.6, "start_date": "2003-01-25T00:10", "end_date": "2003-02-17T23:53"}, "geometry": {"type": "LineString", "coordinates": [[18.44164, -33.91495], [18.44165, -33.91494], [18.44166, -33.91496], [18.44164, -33.91494], [18.44164, -33.91494], [18.44165, -33.91496], [18.44164, -33.91497], [18.44162, -33.91495], [18.44163, -33.91493], [18.44163, -33.91496], [18.44166, -33.91497], [18.44163, -33.91498], [18.44163, -33.91494], [18.44163, -33.91494], [18.44164, -33.91495], [18.44164, -33.91494], [18.43628, -33.90276], [18.30484, -33.80884], [18.11679, -33.64231], [17.93992, -33.4652], [17.76364, -33.28838], [17.58352, -33.10406], [17.38915, -32.91119], [17.20566, -32.72833], [17.03673, -32.54871], [16.86333, -32.37401], [16.68149, -32.19816], [16.5102, -32.0223], [16.34051, -31.84996], [16.18424, -31.68116], [16.02414, -31.51764], [15.85514, -31.35549], [15.68907, -31.18433], [15.52933, -31.01344], [15.36948, -30.84599], [15.21597, -30.67924], [15.06144, -30.50258], [14.89054, -30.3322], [14.71447, -30.15947], [14.53924, -29.98457], [14.37232, -29.80702], [14.20748, -29.62995], [14.0315, -29.45927], [13.86441, -29.28579], [13.70503, -29.10689], [13.5333, -28.93366], [13.37293, -28.75702], [13.21025, -28.58428], [13.04049, -28.41537], [12.87791, -28.2491], [12.7174, -28.07668], [12.55596, -27.90276], [12.38911, -27.72929], [12.23072, -27.55338], [12.05842, -27.38028], [11.89056, -27.19732], [11.7171, -27.01221], [11.54528, -26.82958], [11.37258, -26.66256], [11.21536, -26.47296], [11.04673, -26.29289], [10.88019, -26.11143], [10.71364, -25.93252], [10.53785, -25.78824], [10.39751, -25.58556], [10.23094, -25.39896], [10.05896, -25.21875], [9.88942, -25.03811], [9.72807, -24.85432], [9.5592, -24.67929], [9.39498, -24.49787], [9.22999, -24.31546], [9.06829, -24.13355], [8.90815, -23.95279], [8.74595, -23.776], [8.57904, -23.60262], [8.42316, -23.42527], [8.26405, -23.25206], [8.10746, -23.07928], [7.95195, -22.90287], [7.78979, -22.7317], [7.63384, -22.55415], [7.47405, -22.37404], [7.30682, -22.19592], [7.1453, -22.01259], [6.98321, -21.82849], [6.81989, -21.64567], [6.65473, -21.46344], [6.49056, -21.27931], [6.32691, -21.09945], [6.17145, -20.91818], [6.01393, -20.73596], [5.8489, -20.56052], [5.69055, -20.38189], [5.53084, -20.20236], [5.36923, -20.02289], [5.20948, -19.84125], [5.04892, -19.66154], [4.89132, -19.47741], [4.73162, -19.29596], [4.57157, -19.11282], [4.40982, -18.9315], [4.25157, -18.74922], [4.09667, -18.56884], [3.94057, -18.39217], [3.78028, -18.2192], [3.6267, -18.04328], [3.47696, -17.86611], [3.32587, -17.68743], [3.17011, -17.51322], [3.01713, -17.33633], [2.85988, -17.16063], [2.70704, -16.98282], [2.55336, -16.80804], [2.39921, -16.62991], [2.24469, -16.45033], [2.09241, -16.27244], [1.9414, -16.09598], [1.78155, -15.91938], [1.62799, -15.73849], [1.47246, -15.55789], [1.32183, -15.37652], [1.16363, -15.20102], [1.01176, -15.02482], [0.8575, -14.84996], [0.70812, -14.67124], [0.55589, -14.4967], [0.40553, -14.32346], [0.25786, -14.1484], [0.10705, -13.97139], [-0.04251, -13.79501], [-0.19201, -13.61964], [-0.34478, -13.44326], [-0.49447, -13.26638], [-0.64562, -13.09156], [-0.79546, -12.91888], [-0.94537, -12.74257], [-1.09454, -12.56635], [-1.24333, -12.38669], [-1.39889, -12.21325], [-1.54779, -12.03544], [-1.69637, -11.86053], [-1.84921, -11.68652], [-1.99828, -11.50914], [-2.14661, -11.32788], [-2.29479, -11.15086], [-2.45059, -10.97853], [-2.59923, -10.80136], [-2.74236, -10.61965], [-2.89584, -10.44692], [-3.05019, -10.27381], [-3.1911, -10.09002], [-3.34358, -9.91269], [-3.50199, -9.73929], [-3.64958, -9.55788], [-3.79966, -9.37259], [-3.95282, -9.19064], [-4.10895, -9.00962], [-4.26094, -8.82209], [-4.42283, -8.63918], [-4.57633, -8.45213], [-4.73027, -8.26999], [-4.8832, -8.08934], [-5.03389, -7.91133], [-5.18204, -7.73222], [-5.32768, -7.55294], [-5.47912, -7.37603], [-5.63171, -7.20333], [-5.77505, -7.02354], [-5.9211, -6.84788], [-6.07087, -6.67484], [-6.21505, -6.5038], [-6.35885, -6.32996], [-6.50503, -6.15644], [-6.647, -5.9805], [-6.79674, -5.81355], [-6.93442, -5.63336], [-7.08449, -5.46109], [-7.23203, -5.28393], [-7.38137, -5.10439], [-7.53348, -4.92935], [-7.68128, -4.752], [-7.82838, -4.57513], [-7.97535, -4.39702], [-8.13085, -4.21902], [-8.27184, -4.03828], [-8.42164, -3.8641], [-8.56675, -3.68802], [-8.71286, -3.51087], [-8.85866, -3.3354], [-9.0035, -3.15484], [-9.15827, -2.98479], [-9.30291, -2.80949], [-9.44326, -2.63164], [-9.59052, -2.46023], [-9.7324, -2.28666], [-9.87654, -2.11358], [-10.01865, -1.93982], [-10.16452, -1.76809], [-10.31008, -1.59494], [-10.45763, -1.41711], [-10.60207, -1.24373], [-10.75012, -1.06989], [-10.89463, -0.89257], [-11.04386, -0.71363], [-11.19364, -0.53228], [-11.34649, -0.35243], [-11.49587, -0.17394], [-11.64443, 0.00806], [-11.79658, 0.19087], [-11.94833, 0.3776], [-12.10443, 0.56141], [-12.26131, 0.74868], [-12.41318, 0.93247], [-12.5622, 1.11939], [-12.71801, 1.30605], [-12.87179, 1.48866], [-13.02297, 1.66773], [-13.1712, 1.84608], [-13.31569, 2.02004], [-13.45604, 2.19048], [-13.59888, 2.3636], [-13.74541, 2.53104], [-13.88609, 2.70573], [-14.03406, 2.87675], [-14.17435, 3.05464], [-14.31218, 3.23253], [-14.45594, 3.39428], [-14.5999, 3.56304], [-14.74088, 3.7321], [-14.88397, 3.8995], [-15.02675, 4.0708], [-15.16805, 4.24377], [-15.30945, 4.41652], [-15.45163, 4.57683], [-15.58471, 4.74656], [-15.72469, 4.91451], [-15.86048, 5.08303], [-16.00504, 5.24356], [-16.14705, 5.41306], [-16.28322, 5.5826], [-16.42016, 5.7506], [-16.56276, 5.91368], [-16.70323, 6.08125], [-16.84444, 6.24696], [-16.98537, 6.41164], [-17.12712, 6.58101], [-17.26732, 6.74967], [-17.38932, 6.89699], [-17.39185, 6.89861], [-17.44359, 6.96069], [-17.5906, 7.13621], [-17.73727, 7.3101], [-17.88301, 7.48438], [-18.02458, 7.65603], [-18.16948, 7.82418], [-18.31169, 7.99274], [-18.45465, 8.16719], [-18.59986, 8.33596], [-18.73707, 8.50347], [-18.87895, 8.67188], [-19.02448, 8.84136], [-19.16299, 9.01017], [-19.30264, 9.17784], [-19.44537, 9.35016], [-19.58473, 9.51658], [-19.72679, 9.6819], [-19.86786, 9.84845], [-20.00334, 10.01427], [-20.04622, 10.22212], [-20.08805, 10.43104], [-20.13537, 10.64294], [-20.18166, 10.85538], [-20.2233, 11.07115], [-20.26681, 11.29007], [-20.31377, 11.51033], [-20.3614, 11.72624], [-20.40798, 11.94376], [-20.45007, 12.15999], [-20.50007, 12.37299], [-20.55203, 12.5809], [-20.58617, 12.7978], [-20.63348, 13.01745], [-20.68063, 13.23423], [-20.72222, 13.44758], [-20.76364, 13.66232], [-20.80683, 13.87879], [-20.85431, 14.08941], [-20.89942, 14.29981], [-20.94526, 14.51133], [-20.99064, 14.72423], [-20.99403, 14.93906], [-20.99193, 15.1553], [-20.98625, 15.36922], [-20.98452, 15.58407], [-20.97699, 15.80055], [-20.96619, 16.02163], [-20.95864, 16.23542], [-20.96836, 16.45232], [-20.96304, 16.66907], [-20.95867, 16.88433], [-20.94849, 17.09903], [-20.94129, 17.31253], [-20.94403, 17.53], [-20.94008, 17.74458], [-20.93401, 17.95966], [-20.92761, 18.17438], [-20.92827, 18.38447], [-20.92138, 18.59343], [-20.91818, 18.80607], [-20.91427, 19.01896], [-20.90996, 19.23621], [-20.89998, 19.4498], [-20.89931, 19.66741], [-20.89902, 19.88431], [-20.8911, 20.09592], [-20.8853, 20.30989], [-20.87967, 20.52302], [-20.88038, 20.73588], [-20.8748, 20.94657], [-20.86439, 21.0726], [-20.86335, 21.0684], [-20.86162, 21.06583], [-20.86632, 21.2614], [-20.86028, 21.47408], [-20.85592, 21.68748], [-20.85642, 21.89903], [-20.85477, 22.11268], [-20.84549, 22.32988], [-20.84182, 22.54369], [-20.83533, 22.75323], [-20.77383, 22.947], [-20.68106, 23.13077], [-20.58268, 23.31323], [-20.48949, 23.50173], [-20.39696, 23.69504], [-20.2936, 23.8843], [-20.19508, 24.07845], [-20.09173, 24.27403], [-19.99358, 24.47018], [-19.89579, 24.6676], [-19.79254, 24.86365], [-19.69102, 25.06304], [-19.58342, 25.26171], [-19.47569, 25.45607], [-19.38363, 25.6525], [-19.28594, 25.81474], [-19.19727, 26.01183], [-19.09399, 26.20336], [-18.99568, 26.39538], [-18.89377, 26.58778], [-18.7846, 26.78227], [-18.69263, 26.98168], [-18.58732, 27.1767], [-18.47756, 27.3718], [-18.37868, 27.56753], [-18.27936, 27.75367], [-18.16076, 27.9163], [-18.02217, 28.06802], [-17.88619, 28.21883], [-17.76401, 28.3771], [-17.65926, 28.55489], [-17.55965, 28.74189], [-17.46292, 28.93434], [-17.35966, 29.12531], [-17.26198, 29.31138], [-17.16973, 29.4979], [-17.07348, 29.68489], [-16.9762, 29.87131], [-16.87955, 30.05689], [-16.79708, 30.22456], [-16.68894, 30.41452], [-16.59211, 30.6099], [-16.49685, 30.79952], [-16.41452, 30.94821], [-16.31607, 31.13297], [-16.21684, 31.31483], [-16.12137, 31.50056], [-16.02047, 31.6852], [-15.92102, 31.87216], [-15.82092, 32.0611], [-15.71992, 32.2491], [-15.61576, 32.43948], [-15.51516, 32.63091], [-15.41876, 32.81716], [-15.31695, 33.00374], [-15.21459, 33.1909], [-15.11302, 33.37929], [-15.01422, 33.56978], [-14.90766, 33.75748], [-14.80436, 33.94843], [-14.7069, 34.11836], [-14.6165, 34.2899], [-14.52526, 34.45714], [-14.44225, 34.605], [-14.35147, 34.77361], [-14.25749, 34.94052], [-14.16391, 35.11313], [-14.06854, 35.28411], [-13.97127, 35.45434], [-13.87953, 35.62495], [-13.78989, 35.79166], [-13.69702, 35.95595], [-13.60699, 36.12166], [-13.519, 36.28867], [-13.41985, 36.45326], [-13.32794, 36.62062], [-13.23393, 36.78797], [-13.13545, 36.95551], [-13.04127, 37.11757], [-12.94758, 37.28296], [-12.85323, 37.45149], [-12.75942, 37.61883], [-12.66864, 37.78535], [-12.57161, 37.94914], [-12.47354, 38.1158], [-12.3778, 38.28087], [-12.28688, 38.45095], [-12.17826, 38.59599], [-12.09241, 38.76929], [-12.00051, 38.93986], [-11.91127, 39.09741], [-11.80939, 39.26506], [-11.71218, 39.43061], [-11.61863, 39.59657], [-11.51752, 39.7618], [-11.42533, 39.92642], [-11.32545, 40.09132], [-11.222, 40.26174], [-11.12152, 40.43346], [-11.02321, 40.60775], [-10.92088, 40.7805], [-10.81016, 40.95156], [-10.70698, 41.12167], [-10.60926, 41.29235], [-10.50772, 41.46085], [-10.40748, 41.62886], [-10.30483, 41.7958], [-10.20421, 41.9655], [-10.10394, 42.13801], [-10.00142, 42.30859], [-9.89274, 42.47508], [-9.8043, 42.62756], [-9.79319, 42.81129], [-9.78848, 42.99019], [-9.77766, 43.15986], [-9.6658, 43.32696], [-9.52584, 43.47751], [-9.40683, 43.64122], [-9.2695, 43.80474], [-9.1406, 43.9702], [-9.00183, 44.13306], [-8.86821, 44.29685], [-8.73835, 44.46562], [-8.58905, 44.6296], [-8.44892, 44.8002], [-8.30863, 44.97354], [-8.15659, 45.13981], [-8.02285, 45.30426], [-7.89188, 45.47169], [-7.76102, 45.63773], [-7.62492, 45.80381], [-7.47391, 45.95629], [-7.34508, 46.12448], [-7.20195, 46.28877], [-7.06506, 46.45465], [-6.92388, 46.62224], [-6.77358, 46.78271], [-6.63368, 46.94779], [-6.49376, 47.1158], [-6.36449, 47.26639], [-6.21343, 47.42388], [-6.07986, 47.58636], [-5.94741, 47.7486], [-5.80235, 47.90945], [-5.65876, 48.07258], [-5.51221, 48.23777], [-5.36498, 48.40962], [-5.19495, 48.57207], [-4.95608, 48.70345], [-4.70578, 48.82935], [-4.46981, 48.94969], [-4.23938, 49.07253], [-4.0091, 49.19474], [-3.76123, 49.32866], [-3.50057, 49.4664], [-3.24766, 49.59453], [-3.00364, 49.72639], [-2.73556, 49.82768], [-2.43751, 49.88158], [-2.18423, 49.92208], [-1.93262, 49.96602], [-1.69032, 50.00674], [-1.43932, 50.04977], [-1.1781, 50.09272], [-0.9161, 50.13441], [-0.60593, 50.18848], [-0.27588, 50.24062], [0.05838, 50.29781], [0.38576, 50.37976], [0.71577, 50.44083], [1.03081, 50.50352], [1.29209, 50.64596], [1.44837, 50.84615], [1.60823, 51.02315], [1.8062, 51.20171], [2.04905, 51.34648], [2.27185, 51.49952], [2.47908, 51.65659], [2.67643, 51.80623], [2.85892, 51.95261], [3.05595, 52.08379], [3.25686, 52.2101], [3.42892, 52.31863], [3.58337, 52.41356], [3.74745, 52.52019], [3.92621, 52.62842], [4.10189, 52.74216], [4.22609, 52.86003], [4.33519, 52.98353], [4.44865, 53.1116], [4.57085, 53.23615], [4.69111, 53.36101], [4.86584, 53.43576], [5.08338, 53.48287], [5.29921, 53.52741], [5.51139, 53.57123], [5.72019, 53.61398], [5.92232, 53.65628], [6.13289, 53.69963], [6.34117, 53.74162], [6.562, 53.776], [6.79687, 53.80387], [7.02389, 53.83584], [7.24984, 53.86713], [7.46861, 53.89727], [7.67907, 53.88496], [7.89136, 53.8622], [8.24452, 53.73228], [8.52854, 53.58068], [8.55079, 53.57377], [8.55507, 53.56681], [8.55503, 53.56683], [8.55507, 53.56684], [8.55505, 53.56681], [8.55505, 53.56681], [8.55506, 53.56679], [8.55508, 53.5668], [8.55508, 53.56683], [8.55506, 53.56681], [8.55505, 53.5668], [8.55506, 53.56682], [8.55506, 53.56682], [8.55529, 53.56703]]}}, {"type": "Feature", "properties": {"vessel_name": "RV Polarstern", "voyage_id": "PS118-2018", "country": "Germany", "source": "PANGAEA", "observation_count": 8435, "total_distance_km": 8439.2, "start_date": "2019-02-09T04:20", "end_date": "2019-04-08T17:51"}, "geometry": {"type": "LineString", "coordinates": [[-70.88401, -53.17117], [-70.88334, -53.1704], [-70.8833, -53.17058], [-70.8832, -53.17002], [-70.88317, -53.1706], [-70.88302, -53.17009], [-70.88306, -53.16988], [-70.88313, -53.16973], [-70.88309, -53.16984], [-70.88369, -53.16965], [-70.88332, -53.16985], [-70.88315, -53.16994], [-70.88431, -53.16913], [-70.88471, -53.16903], [-70.88394, -53.16856], [-70.85661, -53.12422], [-70.85839, -53.1254], [-70.85837, -53.12541], [-70.85839, -53.12541], [-70.85838, -53.12541], [-70.87767, -53.16918], [-70.88142, -53.16965], [-70.88152, -53.16982], [-70.88143, -53.17033], [-70.88119, -53.17085], [-70.88134, -53.16968], [-70.88134, -53.16986], [-70.88116, -53.17048], [-70.88258, -53.17047], [-70.83343, -53.14047], [-70.85836, -53.12535], [-70.85835, -53.12536], [-70.85835, -53.12535], [-70.85835, -53.12535], [-70.85837, -53.12535], [-70.85835, -53.12534], [-70.85836, -53.12534], [-70.85836, -53.12535], [-70.88023, -53.17264], [-70.88023, -53.17293], [-70.88074, -53.17333], [-70.88018, -53.17293], [-70.88004, -53.17248], [-70.87998, -53.17237], [-70.87952, -53.17222], [-70.87945, -53.1718], [-70.87916, -53.17181], [-70.83767, -53.13518], [-70.85847, -53.12526], [-70.85846, -53.12527], [-70.85846, -53.12526], [-70.85845, -53.12527], [-70.85846, -53.12526], [-70.85846, -53.12526], [-70.85848, -53.12527], [-70.85848, -53.12527], [-70.85847, -53.12527], [-70.85848, -53.12527], [-70.78214, -53.05416], [-70.80296, -52.92974], [-70.80295, -52.92974], [-70.80295, -52.92973], [-70.80295, -52.92974], [-70.80296, -52.92972], [-70.80295, -52.92974], [-70.80295, -52.92973], [-70.80296, -52.92974], [-70.80295, -52.92973], [-70.80295, -52.92973], [-70.80295, -52.92973], [-70.80297, -52.92974], [-70.80295, -52.92973], [-70.80295, -52.92975], [-70.80295, -52.92973], [-70.79753, -53.08444], [-70.85843, -53.12536], [-70.85842, -53.12537], [-70.85842, -53.12537], [-70.85842, -53.12538], [-70.85844, -53.12538], [-70.85841, -53.12538], [-70.85842, -53.12538], [-70.85842, -53.12538], [-70.78405, -53.09779], [-70.17668, -52.70042], [-69.50744, -52.45561], [-68.72149, -52.45048], [-68.04031, -52.74091], [-67.36351, -53.13251], [-66.68453, -53.52176], [-66.00294, -53.90895], [-65.37157, -54.2663], [-64.88076, -54.68628], [-64.88978, -55.20347], [-64.43189, -55.52275], [-64.07121, -55.85104], [-63.58676, -56.36268], [-63.06276, -56.81823], [-62.63363, -57.18719], [-62.22907, -57.52832], [-61.82306, -57.76181], [-61.43099, -57.95605], [-61.04634, -58.15481], [-60.63201, -58.35592], [-60.20105, -58.63469], [-59.89257, -59.02949], [-59.63584, -59.4512], [-59.38093, -59.84777], [-58.94146, -60.25902], [-58.44318, -60.71165], [-57.91428, -61.18557], [-57.3885, -61.6494], [-57.07867, -62.12337], [-57.05448, -62.64828], [-57.00664, -63.08332], [-56.46658, -63.49498], [-56.23341, -63.62889], [-56.26222, -63.66608], [-56.22796, -63.70602], [-56.22448, -63.701], [-56.26834, -63.70668], [-56.24001, -63.75261], [-56.35459, -63.79382], [-56.44699, -63.88314], [-56.26966, -64.13274], [-56.21802, -64.34442], [-56.23131, -64.45734], [-56.26092, -64.44929], [-56.26578, -64.41808], [-56.25884, -64.36225], [-56.25252, -64.3437], [-56.27016, -64.35115], [-56.4603, -64.44052], [-56.74563, -64.50135], [-56.95937, -64.62064], [-56.93859, -64.65868], [-57.09216, -64.73916], [-57.04832, -64.81005], [-57.23762, -64.7839], [-57.22425, -64.83232], [-57.44084, -64.86413], [-57.53333, -64.87605], [-57.52259, -64.92005], [-57.52249, -64.91858], [-57.53066, -64.92785], [-57.37024, -65.02042], [-57.17238, -65.11882], [-57.16653, -65.15485], [-57.18499, -65.16808], [-57.35461, -65.15598], [-57.39492, -65.14275], [-57.4194, -65.13903], [-57.61277, -65.15959], [-57.73621, -65.18544], [-57.74655, -65.23765], [-57.6563, -65.29059], [-57.69063, -65.31558], [-57.69227, -65.32908], [-57.70018, -65.33608], [-57.77716, -65.32286], [-57.84249, -65.31149], [-57.89932, -65.31558], [-57.90561, -65.32149], [-57.94548, -65.32968], [-57.95814, -65.32735], [-57.96171, -65.31971], [-57.95422, -65.30517], [-57.94241, -65.27545], [-57.93178, -65.24042], [-57.93427, -65.22916], [-57.93218, -65.22564], [-57.92876, -65.22321], [-57.92823, -65.22313], [-57.92831, -65.22311], [-57.92766, -65.2232], [-57.92754, -65.22316], [-57.92847, -65.22295], [-57.92655, -65.22237], [-57.92653, -65.22235], [-57.92905, -65.22267], [-57.93657, -65.22427], [-57.94558, -65.22634], [-57.95482, -65.22902], [-57.96615, -65.23296], [-57.97416, -65.23839], [-57.97447, -65.23951], [-57.96355, -65.23761], [-57.94254, -65.23279], [-57.93516, -65.23103], [-57.94633, -65.23407], [-57.95889, -65.24085], [-57.96274, -65.24737], [-57.96503, -65.25286], [-57.97588, -65.25724], [-57.98173, -65.25671], [-57.98235, -65.25392], [-57.97733, -65.24293], [-57.97643, -65.23857], [-57.98818, -65.23957], [-58.01852, -65.24849], [-58.03107, -65.26112], [-58.04723, -65.27195], [-58.05702, -65.27839], [-58.06858, -65.27905], [-58.0678, -65.27454], [-58.05535, -65.25984], [-58.23127, -65.1876], [-58.22696, -65.18689], [-58.243, -65.16701], [-58.24541, -65.17308], [-58.05415, -65.08153], [-57.75072, -64.98252], [-57.66519, -64.97322], [-57.74789, -64.98157], [-57.65514, -64.96626], [-57.55891, -64.93692], [-57.6243, -64.94054], [-57.52113, -64.91743], [-57.38821, -64.91675], [-57.7764, -64.98009], [-57.77441, -64.97621], [-57.79996, -64.9778], [-57.81004, -64.97217], [-57.79651, -64.96292], [-57.78714, -64.95071], [-57.78847, -64.94047], [-57.80475, -64.93357], [-57.81878, -64.92864], [-57.80542, -64.92704], [-57.81579, -64.93073], [-57.82099, -64.92484], [-57.82809, -64.91326], [-57.81906, -64.90466], [-57.80542, -64.89897], [-57.80384, -64.89798], [-57.80656, -64.89707], [-57.80844, -64.89647], [-57.80723, -64.89661], [-57.80579, -64.89703], [-57.81079, -64.89664], [-57.81999, -64.89556], [-57.81849, -64.8951], [-57.81396, -64.89517], [-57.81567, -64.89501], [-57.82308, -64.89525], [-57.82662, -64.89551], [-57.82763, -64.89621], [-57.83732, -64.90239], [-57.86016, -64.91209], [-57.88129, -64.91668], [-57.88201, -64.91225], [-57.8578, -64.89413], [-57.8572, -64.89156], [-57.87058, -64.89268], [-57.87606, -64.89181], [-57.87282, -64.89241], [-57.87015, -64.89381], [-57.77043, -64.87392], [-57.42298, -64.87135], [-56.97709, -64.76987], [-56.70507, -64.71232], [-56.68961, -64.68403], [-56.61812, -64.60886], [-56.47217, -64.53976], [-56.41266, -64.53824], [-56.41323, -64.55459], [-56.39584, -64.5561], [-56.34014, -64.56043], [-56.23361, -64.5435], [-56.01545, -64.44252], [-55.90096, -64.32221], [-56.03737, -64.22683], [-55.89293, -64.11471], [-55.90881, -64.04564], [-55.90815, -64.01578], [-55.90535, -63.98819], [-55.90538, -63.97105], [-55.90836, -63.96179], [-55.90791, -63.9879], [-55.95336, -63.98739], [-55.969, -63.99441], [-55.95101, -64.00036], [-55.93105, -64.01971], [-55.90981, -64.01829], [-55.91875, -64.02378], [-55.9232, -64.02048], [-55.93066, -64.01966], [-55.91852, -64.01878], [-55.91672, -64.01989], [-55.92742, -63.99438], [-55.95614, -63.99271], [-55.97661, -64.00299], [-55.95398, -63.99985], [-55.69327, -63.91888], [-55.67495, -63.88856], [-55.69502, -63.90099], [-55.70083, -63.84732], [-55.75454, -63.81228], [-55.74454, -63.80647], [-55.71499, -63.81562], [-55.69959, -63.81542], [-55.66633, -63.82537], [-55.62792, -63.83374], [-55.55834, -63.84201], [-55.47958, -63.83996], [-55.44557, -63.84434], [-55.44481, -63.84465], [-55.4472, -63.84442], [-55.45755, -63.85007], [-55.46352, -63.85974], [-55.46612, -63.85327], [-55.44272, -63.83946], [-55.38049, -63.82643], [-55.35072, -63.82351], [-55.34134, -63.80639], [-55.30576, -63.77241], [-55.28867, -63.73856], [-55.42838, -63.72968], [-55.44843, -63.74249], [-55.50463, -63.73125], [-55.97606, -63.68977], [-56.08398, -63.61513], [-56.44309, -63.47904], [-56.93404, -63.14117], [-56.67514, -62.72109], [-55.52457, -62.61823], [-54.64862, -62.8653], [-54.31314, -63.06878], [-54.32952, -63.05289], [-54.22458, -62.81881], [-54.09569, -62.33253], [-53.79378, -61.99227], [-53.08471, -61.92887], [-53.30521, -61.91125], [-53.72999, -61.94857], [-53.07526, -61.82847], [-53.53034, -61.86186], [-54.33855, -61.97144], [-54.99826, -62.00595], [-54.97334, -61.95364], [-54.00153, -61.94162], [-53.66407, -61.92013], [-53.36688, -61.96781], [-53.15467, -62.00419], [-52.93438, -62.0236], [-52.80872, -62.05092], [-52.66434, -62.04749], [-52.38747, -62.11307], [-52.23259, -62.15418], [-51.76568, -62.22135], [-51.47421, -62.25408], [-51.42748, -62.257], [-51.4103, -62.24719], [-51.4304, -62.24144], [-51.61093, -62.28885], [-51.67017, -62.32708], [-51.81669, -62.35106], [-52.02658, -62.3935], [-52.10429, -62.38782], [-52.50569, -62.51678], [-52.56366, -62.53088], [-52.79516, -62.59546], [-52.89455, -62.62341], [-53.05398, -62.65156], [-53.28867, -62.68635], [-53.11455, -62.72216], [-53.26299, -62.70949], [-53.45382, -62.75942], [-53.76, -62.84745], [-54.10917, -62.93829], [-54.25109, -63.05387], [-54.36946, -63.04111], [-54.3613, -63.06891], [-54.34965, -63.0633], [-54.31106, -63.06904], [-54.3218, -63.07994], [-54.31231, -63.06506], [-54.3182, -63.07514], [-54.33635, -63.06835], [-54.31361, -63.075], [-53.97159, -62.88099], [-53.64349, -62.51369], [-53.59935, -62.33264], [-53.33854, -61.92647], [-53.27438, -61.90784], [-53.22404, -61.89972], [-53.24142, -61.92259], [-53.28294, -61.90707], [-53.32164, -61.89375], [-53.32994, -61.86448], [-52.76517, -61.84215], [-52.17388, -61.80617], [-52.05776, -61.71654], [-52.26736, -61.72204], [-52.43129, -61.8622], [-52.92177, -61.81259], [-52.53292, -61.61922], [-51.94756, -61.4291], [-52.07276, -61.42514], [-51.83868, -61.32888], [-51.57631, -61.43932], [-51.42115, -61.50281], [-51.30992, -61.5447], [-51.14491, -61.59383], [-51.33761, -61.57926], [-51.92627, -61.62282], [-51.1371, -61.59531], [-51.13837, -61.61223], [-51.1309, -61.56945], [-51.13073, -61.54057], [-51.49247, -61.47399], [-51.52323, -61.49989], [-51.31409, -61.32475], [-50.67817, -61.03915], [-50.19696, -60.84688], [-50.00383, -60.85061], [-49.76301, -60.84733], [-49.59587, -60.84383], [-49.41287, -60.84908], [-49.22127, -60.84791], [-48.99849, -60.84848], [-48.5339, -60.85144], [-48.29518, -60.8441], [-48.18867, -60.85402], [-47.89971, -60.85444], [-47.51501, -60.85013], [-46.81925, -60.90725], [-46.55866, -60.93476], [-46.95533, -60.99919], [-47.74401, -61.12542], [-47.72364, -61.11686], [-48.28362, -61.12387], [-48.83029, -61.1329], [-48.88902, -61.1285], [-49.29825, -61.15843], [-49.70802, -61.16702], [-49.74463, -61.16501], [-50.67391, -61.12441], [-51.58027, -61.1211], [-51.67323, -61.0994], [-51.72181, -61.09419], [-51.83631, -61.17006], [-51.92865, -61.12294], [-52.02789, -61.2467], [-51.7706, -61.37931], [-51.10903, -61.39742], [-50.5114, -61.21819], [-50.78897, -61.22968], [-50.88428, -61.20548], [-50.99344, -61.19298], [-51.00198, -61.19758], [-51.03181, -61.20508], [-50.99784, -61.20288], [-51.04716, -61.20251], [-51.09349, -61.1908], [-51.56542, -61.09272], [-51.77374, -61.07745], [-51.14605, -61.05646], [-50.42202, -60.86856], [-50.13358, -60.84539], [-49.84473, -60.83726], [-49.77134, -60.84913], [-49.65371, -60.85275], [-49.61968, -60.84632], [-49.39451, -60.85], [-48.89954, -60.88844], [-48.90915, -60.8846], [-48.92553, -60.88156], [-48.6416, -60.85559], [-48.4926, -60.8531], [-48.21455, -60.83528], [-48.11066, -60.76567], [-47.67687, -60.84631], [-48.15475, -60.91869], [-48.87736, -60.914], [-49.6335, -60.94404], [-50.31672, -60.9342], [-51.08487, -61.12649], [-51.43621, -61.44418], [-52.07117, -61.62826], [-52.57081, -61.76409], [-51.98121, -61.53035], [-51.24864, -61.35417], [-50.71787, -61.22753], [-50.7193, -61.20327], [-50.72015, -61.1818], [-50.72108, -61.16806], [-50.69771, -61.17704], [-50.79038, -61.19223], [-51.8653, -61.22999], [-52.49531, -61.22077], [-53.44041, -60.90747], [-54.26884, -60.48553], [-55.13678, -60.08222], [-56.00382, -59.67104], [-56.83625, -59.27112], [-57.67191, -58.86476], [-58.48849, -58.46289], [-59.2721, -58.07279], [-60.11208, -57.64984], [-60.91581, -57.24036], [-61.70939, -56.83125], [-62.4946, -56.42195], [-63.24963, -56.02418], [-64.0109, -55.61893], [-64.65625, -55.27206], [-64.92649, -54.79109], [-64.96922, -54.48828], [-65.22729, -54.28868], [-65.48515, -54.10043], [-65.78129, -53.88619], [-66.1455, -53.74359], [-66.50159, -53.64251], [-66.72526, -53.52485], [-66.89543, -53.39135], [-67.31183, -53.21795], [-67.35256, -52.98535], [-67.41892, -53.14919], [-67.24906, -53.29519], [-67.42802, -53.16106], [-67.33418, -53.16881], [-67.57635, -53.00956], [-67.97791, -52.77713], [-68.39021, -52.56783], [-68.81962, -52.42308], [-69.26244, -52.35199], [-70.20121, -52.7033], [-70.89114, -53.1867], [-70.90088, -53.18612]]}}, {"type": "Feature", "properties": {"vessel_name": "RV Nathaniel B. Palmer", "voyage_id": "NBP-2010", "country": "USA", "source": "PANGAEA", "observation_count": 10830, "total_distance_km": 6429.1, "start_date": "2009-11-20T08:18:00", "end_date": "2009-12-18T12:51:00"}, "geometry": {"type": "LineString", "coordinates": [[-67.65701, -52.964], [-67.46701, -53.082], [-67.17401, -53.258], [-66.92899, -53.41], [-66.78, -53.493], [-66.52801, -53.643], [-66.259, -53.805], [-66.09399, -53.897], [-65.82599, -54.055], [-65.569, -54.208], [-65.31299, -54.359], [-65.16199, -54.447], [-64.97, -54.566], [-64.966, -54.737], [-64.948, -54.875], [-64.741, -54.993], [-64.53101, -55.238], [-64.51999, -55.233], [-64.54599, -55.131], [-64.56799, -55.024], [-64.577, -55.133], [-64.483, -55.355], [-64.43899, -55.368], [-64.48001, -55.302], [-64.50699, -55.251], [-64.517, -55.229], [-64.46799, -55.36], [-64.42401, -55.49], [-64.40601, -55.601], [-64.38599, -55.597], [-64.40399, -55.599], [-64.40201, -55.599], [-64.388, -55.601], [-64.38901, -55.599], [-64.371, -55.697], [-64.33099, -55.819], [-64.30301, -55.92], [-64.27499, -55.922], [-64.27399, -55.921], [-64.268, -56.012], [-64.22601, -56.137], [-64.23099, -56.135], [-64.22501, -56.137], [-64.20001, -56.222], [-64.198, -56.22], [-64.194, -56.221], [-64.19199, -56.22], [-64.17899, -56.217], [-64.06601, -56.44], [-63.92099, -56.677], [-63.92001, -56.695], [-63.92401, -56.693], [-63.909, -56.693], [-63.86099, -56.782], [-63.82101, -56.85], [-63.819, -56.853], [-63.824, -56.849], [-63.574, -56.8], [-63.181, -56.726], [-63.185, -56.727], [-63.185, -56.73], [-63.17001, -56.759], [-63.04501, -56.966], [-62.99701, -57.038], [-62.99799, -57.04], [-62.99499, -57.038], [-62.88699, -56.937], [-62.74899, -56.81], [-62.54599, -56.626], [-62.54599, -56.632], [-62.547, -56.635], [-62.547, -56.635], [-62.246, -56.584], [-62.24399, -56.589], [-62.24701, -56.585], [-62.19699, -56.548], [-62.146, -56.554], [-61.91699, -56.54], [-61.91598, -56.54], [-61.91598, -56.54], [-61.88699, -56.58], [-61.80899, -56.712], [-61.71799, -56.856], [-61.71701, -56.858], [-61.71701, -56.858], [-61.68399, -56.822], [-61.48199, -56.639], [-61.285, -56.449], [-61.28299, -56.446], [-61.28201, -56.446], [-61.28201, -56.448], [-61.28, -56.447], [-61.24301, -56.511], [-61.09399, -56.733], [-61.06799, -56.763], [-61.08099, -56.761], [-61.08099, -56.759], [-61.08099, -56.759], [-61.08099, -56.76], [-61.07199, -56.768], [-60.92999, -56.996], [-60.88, -57.077], [-60.88, -57.08], [-60.88101, -57.081], [-60.94101, -57.088], [-61.27899, -57.137], [-61.48099, -57.166], [-61.50601, -57.174], [-61.49301, -57.172], [-61.517, -57.173], [-61.51599, -57.172], [-61.51599, -57.171], [-61.70001, -57.197], [-61.90301, -57.224], [-62.16699, -57.257], [-62.17001, -57.256], [-62.173, -57.259], [-62.203, -57.193], [-62.306, -57.035], [-62.423, -56.956], [-62.42401, -56.956], [-62.423, -56.956], [-62.48199, -57.013], [-62.65799, -57.198], [-62.77499, -57.31], [-62.81601, -57.353], [-62.81299, -57.356], [-62.81299, -57.354], [-62.763, -57.455], [-62.59698, -57.631], [-62.68201, -57.744], [-62.83499, -57.786], [-63.056, -57.85], [-63.13, -57.939], [-63.14099, -57.947], [-63.13901, -57.948], [-63.15601, -57.949], [-63.17001, -57.962], [-63.181, -57.97], [-63.19, -57.979], [-63.18899, -57.979], [-63.19199, -57.978], [-63.11801, -58.056], [-62.92599, -58.265], [-62.767, -58.486], [-62.746, -58.502], [-62.74399, -58.505], [-62.755, -58.503], [-62.66501, -58.642], [-62.58301, -58.771], [-62.44199, -58.991], [-62.44101, -58.991], [-62.43701, -58.992], [-62.43399, -58.992], [-62.36499, -59.1], [-62.23199, -59.317], [-62.08899, -59.544], [-62.061, -59.602], [-62.05899, -59.596], [-62.061, -59.595], [-62.05801, -59.595], [-62.05801, -59.595], [-61.93301, -59.807], [-61.798, -60.037], [-61.76501, -60.092], [-61.76599, -60.092], [-61.76999, -60.093], [-61.64499, -60.247], [-61.55099, -60.37], [-61.40399, -60.566], [-61.375, -60.604], [-61.375, -60.604], [-61.37299, -60.604], [-61.259, -60.788], [-61.11499, -60.999], [-61.047, -61.112], [-61.05301, -61.113], [-61.05099, -61.113], [-61.01001, -61.161], [-60.883, -61.283], [-60.65601, -61.486], [-60.547, -61.716], [-60.55099, -61.728], [-60.55301, -61.722], [-60.54599, -61.72], [-60.51599, -61.766], [-60.44299, -61.873], [-60.38, -61.961], [-60.37701, -61.962], [-60.37601, -61.962], [-60.409, -61.913], [-60.496, -61.792], [-60.48999, -61.785], [-60.388, -61.942], [-60.36499, -61.97], [-60.19101, -61.917], [-59.854, -61.837], [-59.51501, -61.753], [-59.51099, -61.753], [-59.479, -61.761], [-59.565, -61.776], [-59.565, -61.777], [-59.56699, -61.784], [-59.84698, -61.826], [-59.97299, -61.871], [-59.96201, -61.881], [-60.24799, -61.896], [-60.37701, -61.96], [-60.37399, -61.963], [-60.37299, -61.963], [-60.48001, -61.821], [-60.48099, -61.821], [-60.76001, -61.948], [-61.091, -62.104], [-61.27899, -62.197], [-61.27899, -62.197], [-61.28, -62.209], [-61.56399, -62.398], [-61.73901, -62.518], [-61.98199, -62.728], [-62.19501, -62.954], [-62.35101, -63.084], [-62.65701, -63.326], [-62.811, -63.448], [-63.065, -63.645], [-63.32501, -63.844], [-63.483, -63.966], [-63.82101, -64.145], [-64.05801, -64.271], [-64.35001, -64.419], [-64.543, -64.51], [-64.86999, -64.674], [-64.99899, -64.868], [-64.74399, -64.891], [-64.25201, -64.892], [-64.061, -64.774], [-64.061, -64.774], [-64.061, -64.774], [-64.061, -64.774], [-64.06299, -64.774], [-64.06699, -64.823], [-64.47, -64.889], [-65.02801, -64.887], [-65.54001, -64.963], [-65.69, -64.988], [-65.79901, -65.041], [-65.87399, -64.967], [-65.996, -64.999], [-66.20999, -65.152], [-66.47101, -65.279], [-66.62799, -65.373], [-66.893, -65.526], [-67.16299, -65.675], [-67.44699, -65.837], [-67.62399, -65.935], [-67.78101, -66.115], [-67.87201, -66.311], [-67.98901, -66.399], [-68.315, -66.516], [-68.68701, -66.621], [-68.82599, -66.672], [-69.078, -66.801], [-69.30301, -66.988], [-69.53101, -67.175], [-69.655, -67.291], [-69.85699, -67.481], [-69.89899, -67.659], [-69.63599, -67.719], [-69.19199, -67.815], [-68.71201, -67.811], [-68.41299, -67.767], [-68.03699, -67.656], [-68.138, -67.586], [-68.13, -67.572], [-68.13, -67.572], [-68.13, -67.572], [-68.13, -67.572], [-68.05301, -67.658], [-68.237, -67.752], [-68.83401, -67.837], [-69.35699, -67.782], [-69.685, -67.724], [-69.952, -67.562], [-69.66598, -67.335], [-69.582, -67.193], [-69.32999, -66.966], [-69.026, -66.755], [-68.64001, -66.589], [-68.358, -66.504], [-67.94501, -66.338], [-67.759, -66.111], [-67.651, -65.972], [-67.29001, -65.768], [-66.84, -65.602], [-66.517, -65.529], [-66.03601, -65.386], [-65.64899, -65.203], [-65.27499, -65.025], [-65.06201, -64.92], [-64.535, -64.902], [-64.009, -64.848], [-63.67099, -64.905], [-63.229, -64.863], [-62.90399, -64.639], [-62.58499, -64.56], [-62.05899, -64.423], [-61.866, -64.19], [-61.698, -63.965], [-61.50101, -63.846], [-61.21201, -63.646], [-60.957, -63.431], [-60.82599, -63.296], [-60.58301, -63.067], [-60.24899, -62.994], [-59.966, -62.942], [-59.61999, -62.759], [-59.268, -62.566], [-59.224, -62.373], [-59.332, -62.266], [-59.664, -62.148], [-60.08099, -62.036], [-60.33899, -61.971], [-60.37701, -61.958], [-60.543, -61.729], [-60.43301, -61.593], [-60.48901, -61.46], [-60.728, -61.272], [-60.93201, -61.066], [-61.013, -60.932], [-61.14801, -60.705], [-61.324, -60.49], [-61.44, -60.361], [-61.58499, -60.142], [-61.71201, -59.925], [-61.82199, -59.689], [-61.99301, -59.607], [-62.05301, -59.596], [-62.05099, -59.602], [-62.052, -59.381], [-62.10199, -59.254], [-62.267, -59.048], [-62.409, -58.825], [-62.509, -58.692], [-62.70401, -58.489], [-62.79001, -58.259], [-62.88501, -58.129], [-63.11499, -57.956], [-63.117, -57.744], [-63.285, -57.559], [-63.41199, -57.45], [-63.46799, -57.439], [-63.46899, -57.441], [-63.46899, -57.441], [-63.518, -57.303], [-63.63599, -57.143], [-63.63599, -57.143], [-63.63699, -57.141], [-63.71399, -57.122], [-64.08801, -57.012], [-64.45499, -56.909], [-64.448, -56.908], [-64.45801, -56.902], [-64.45499, -56.91], [-64.45599, -56.91], [-64.457, -56.91], [-64.647, -56.938], [-64.949, -56.985], [-65.07901, -57.001], [-65.07101, -57.008], [-64.806, -57.192], [-64.862, -57.299], [-64.923, -57.323], [-64.923, -57.323], [-64.923, -57.323], [-64.923, -57.323], [-64.95599, -57.321], [-64.93201, -57.321], [-64.91901, -57.321], [-64.93301, -57.266], [-65.047, -57.063], [-65.07999, -57.004], [-65.07999, -57.003], [-65.08099, -57.003], [-65.08099, -57.003], [-65.08099, -57.003], [-65.07901, -57.005], [-65.07999, -57.004], [-65.07901, -57.006], [-65.078, -57.005], [-65.074, -57.005], [-64.92499, -57.008], [-64.651, -57.019], [-64.33899, -57.18], [-64.28, -57.23], [-64.28, -57.231], [-64.28, -57.23], [-64.26401, -57.276], [-64.224, -57.507], [-64.40301, -57.56], [-64.49499, -57.611], [-64.457, -57.626], [-64.452, -57.63], [-64.48999, -57.613], [-64.49499, -57.61], [-64.49301, -57.608], [-64.25699, -57.528], [-63.815, -57.508], [-63.79199, -57.515], [-63.82599, -57.506], [-63.82599, -57.506], [-63.82599, -57.506], [-63.81201, -57.557], [-63.61499, -57.653], [-63.35101, -57.844], [-63.143, -57.951], [-63.14001, -57.951], [-63.14001, -57.95], [-62.95401, -57.862], [-63.01099, -57.725], [-63.19601, -57.51], [-63.25201, -57.292], [-63.039, -57.066], [-62.99799, -57.033], [-63.005, -57.034], [-63.01199, -57.036], [-63.00101, -57.039], [-63.005, -57.035], [-63.005, -57.035], [-62.97699, -57.044], [-62.741, -57.108], [-62.345, -57.214], [-62.17099, -57.259], [-62.172, -57.258], [-62.17599, -57.255], [-62.29401, -57.051], [-62.423, -56.955], [-62.42499, -56.956], [-62.42499, -56.956], [-62.59, -57.122], [-62.79901, -57.336], [-62.81699, -57.354], [-62.81601, -57.354], [-62.884, -57.349], [-63.142, -57.318], [-63.48999, -57.212], [-63.59201, -56.961], [-63.824, -56.85], [-63.82599, -56.848], [-63.832, -56.848], [-63.914, -56.691], [-63.922, -56.691], [-63.92801, -56.694], [-63.96799, -56.494], [-63.93899, -56.233], [-64.03201, -56.091], [-64.267, -55.915], [-64.311, -55.901], [-64.306, -55.902], [-64.30701, -55.902], [-64.34, -55.806], [-64.40201, -55.601], [-64.41199, -55.569], [-64.465, -55.426], [-64.518, -55.238], [-64.518, -55.237], [-64.521, -55.235], [-64.521, -55.235], [-64.52301, -55.202], [-64.49701, -54.98], [-64.577, -55.021], [-64.569, -55.065], [-64.51401, -55.146], [-64.49499, -55.19], [-64.46301, -55.192], [-64.50101, -55.321], [-64.50201, -55.319], [-64.52801, -55.191], [-64.518, -55.188], [-64.29401, -55.172], [-64.258, -55.167], [-64.53101, -55.19], [-64.513, -55.187], [-64.28699, -55.168], [-64.18701, -55.154], [-64.039, -55.133], [-64.01401, -55.134], [-63.81299, -55.099], [-63.88, -55.118], [-64.05701, -55.129], [-64.04401, -55.129], [-63.811, -55.095], [-63.77499, -55.112], [-63.728, -55.284], [-63.702, -55.282], [-63.64401, -55.274], [-63.48801, -55.255], [-63.44699, -55.249], [-63.47501, -55.169], [-63.57199, -55.069], [-63.58899, -55.007], [-63.62201, -54.926], [-63.54501, -54.92], [-63.58801, -54.853], [-63.75201, -54.627], [-64.02499, -54.527], [-64.405, -54.361], [-64.75601, -54.213], [-64.957, -54.128], [-65.28201, -53.987], [-65.59399, -53.851], [-65.90601, -53.709], [-66.10699, -53.621], [-66.44199, -53.463], [-66.79999, -53.299], [-67.021, -53.195], [-67.34201, -53.044], [-67.492, -52.973]]}}]}